,ConsentNo,ConsentStatus,fmDate,toDate,HolderAddressFullName,HolderEcanID,ChildAuthorisations,ParentAuthorisations,ParentorChild,ParentChildConsent,CWMSZone,AdMan,TotalInspections,LatestInspection,CountNonCompliance,LatestNonComplianceDate,WAPsOnConsent,CombinedConProRataRate,WAP,WellStatus,SharedMeter,MaxRateSharedWAP,CombinedWAPProRataRate,ConsentsOnWAP,ECsOnWAP,MetersInstalled,DataLoggersInstalled,LatestVerification,VerificationOutOfDate,WaiverEditDate,Waiver,T_AnnualVolume,T_LatestData,T_DaysOfData,T_MetersRecieved,T_AverageDaysOfData,T_AverageMissingDays,WAPProject,Activity,ConsentAnnualVol,ConsentRate,ConsentNVol,ConsentNDay,FishScreen,ComplexAllocations,HasALowflowRestrictionCondition,ConsentLimit,WAPRate,MaxRateProRata,WAPFromMonth,WAPToMonth,WAPNVol,WAPNDay,WAPLimit,FEVolume,CS_ID,CS_ErrorMSG,CS_DaysAboveNday,CS_PercentAnnualVolume,CS_TimeAboveRate,CS_MaxRate,CS_MedianRateAbove,CS_PercentMaxRate,CS_PercentMedRate,WS_ID,WS_MeterName,WS_ErrorMsg,WS_DaysAboveNday,WS_TimeAboveRate,WS_MaxRate,WS_MedianRateAbove,TotalMissingRecord,WS_PercentMaxRoT,WS_PercentMedRate
0,CRC011245,Issued - Active,2008-04-16,2043-04-16,Rangitata Diversion Race Management Limited,EC114929,CRC200187,,nan, ,Ashburton,,4.0,2018-11-07,0.0,,1,7100.0,K36/0920,Active,No,7100.0,7100.0,1,1,3.0,3.0,2017-08-09,No,,No,44515323.0,2019-06-30,365.0,3.0,121.0,244.0,,take surface water,0.0,7100.0,0.0,0.0,NO,"Multiple water permit types (Take, Divert, Dam)",Yes,1,7100.0,,Jul,Jun,,,1,223292160.0,23204,,,,3159.0237966068585,105122.40527343754,10125.903859518738,1480.5972573723598,142.61836421857376,26609.0,K36/0920-M1,,365.0,3159.0237966068585,105122.40527343754,10125.903859518738,0.0,1480.5972573723598,142.61836421857376
1,CRC012006,Issued - Active,2002-12-10,2037-12-10,Selwyn District Council,EC118692,,,nan, ,Selwyn - Waihora,,3.0,2019-04-12,1.0,2018-05-24,1,2500.0,M35/11216,Active,No,2500.0,2500.0,1,1,1.0,1.0,2019-07-09,No,,No,39057575.0,2019-06-29,364.0,1.0,364.0,1.0,,take surface water,0.0,2500.0,0.0,0.0,YES,Multiple allocation blocks,Yes,1,1231.0,,Jul,Jun,,,1,32432000.0,24315,,,,8609.389776052767,5169.925643921086,3582.003889494481,206.79702575684345,143.28015557977923,28287.0,M35/11216-M1,,364.0,3798.718357973761,1723.3085479736121,1444.339333400773,0.041666666666666664,139.99257091580927,117.33057135668344
2,CRC082345,Issued - Active,2009-05-19,2044-05-19,Mayfield Hinds Irrigation Society Limited,EC114622,,,nan, ,Ashburton,,1.0,2018-09-24,0.0,,2,15200.0,K37/3283,Active,No,5700.0,5700.0,1,1,,,,,,,,,,,,365.0,,take surface water,0.0,15200.0,0.0,0.0,No,No,No,1,5700.0,,Jul,Jun,,,1,278415360.0,18094,No data for K37/3283-M1+K37/3284-M1,,,,,,,,18720.0,,No data for K37/3283.,,,,,,,
3,CRC082345,Issued - Active,2009-05-19,2044-05-19,Mayfield Hinds Irrigation Society Limited,EC114622,,,nan, ,Ashburton,,1.0,2018-09-24,0.0,,2,15200.0,K37/3284,Active,No,9500.0,9500.0,1,1,,,,,,,,,,,,365.0,,take surface water,0.0,15200.0,0.0,0.0,No,No,No,1,9500.0,,Jul,Jun,,,1,278415360.0,18094,No data for K37/3283-M1+K37/3284-M1,,,,,,,,18721.0,,No data for K37/3284.,,,,,,,
4,CRC134849,Issued - Active,2016-04-21,2051-04-21,Wairewa Runanga Inc & Christchurch City Council,EC313977,,,nan, ,Banks Peninsula,,1.0,2019-01-10,0.0,,1,150000.0,BY24/0006,Active,No,150000.0,150000.0,1,1,,,,,,No,,,,,,365.0,,take surface water,0.0,150000.0,0.0,0.0,NO,No,Yes,1,150000.0,,Jul,Jun,,,1,0.0,18553,No data for BY24/0006-M1,,,,,,,,19370.0,,No data for BY24/0006.,,,,,,,
5,CRC136234,Issued - Active,2013-05-27,2031-11-18,Central Plains Water Trust,EC107911,,CRC100581.1,nan, ,Waimakariri,,3.0,2018-11-22,0.0,,1,1000.0,L35/1089,Active,No,1000.0,1000.0,1,1,1.0,1.0,,,,No,,,,,,365.0,,take surface water,0.0,1000.0,0.0,0.0,YES,Poor Conditions,Yes,1,1000.0,,Jul,Jun,,,1,211680000.0,20974,No data for M34/5729.,,,,,,,,23055.0,L35/1089-M1,No data for M34/5729.,,,,,,,
6,CRC150232,Issued - Active,2018-07-05,2035-01-28,Barrhill Chertsey Irrigation Limited,EC257775,,CRC143165,nan, ,Ashburton,,4.0,2020-11-30,2.0,2019-01-08,4,17000.010000000002,K36/1037,Active,No,8000.0,4121.21,1,1,1.0,1.0,,,,No,12986174.0,2019-06-30,365.0,1.0,365.0,0.0,,take surface water,0.0,17000.0,,,YES,Poor Conditions,Yes,1,8000.0,,Jul,Jun,,,1,311385600.0,24129,,,,0.0,10604.508491866936,,62.37946171686433,,27994.0,K36/1037-M1,,365.0,0.0,6332.5,0.0,0.0,79.15625,0.0
7,CRC150232,Issued - Active,2018-07-05,2035-01-28,Barrhill Chertsey Irrigation Limited,EC257775,,CRC143165,nan, ,Ashburton,,4.0,2020-11-30,2.0,2019-01-08,4,17000.010000000002,BX21/0040,Active,No,5000.0,7575.76,2,2,1.0,1.0,2016-05-03,No,,No,52610325.0,2019-06-30,365.0,1.0,365.0,0.0,,take surface water,0.0,17000.0,,,YES,Poor Conditions,Yes,1,5000.0,,Jul,Jun,,,1,311385600.0,24129,,,,0.0,10604.508491866936,,62.37946171686433,,27993.0,BX21/0040-M1,,64.0,0.0,2888.774686859156,0.0,0.0,57.775493737183126,0.0
8,CRC150232,Issued - Active,2018-07-05,2035-01-28,Barrhill Chertsey Irrigation Limited,EC257775,,CRC143165,nan, ,Ashburton,,4.0,2020-11-30,2.0,2019-01-08,4,17000.010000000002,L36/2360,Active,No,3000.0,1545.46,1,1,2.0,2.0,2018-03-12,No,,No,20991060.0,2019-06-30,365.0,1.0,365.0,0.0,,take surface water,0.0,17000.0,,,YES,Poor Conditions,Yes,1,3000.0,,Jul,Jun,,,1,311385600.0,24129,,,,0.0,10604.508491866936,,62.37946171686433,,27996.0,L36/2360-M1,,365.0,0.0,2594.8749999999964,0.0,0.0,86.49583333333322,0.0
9,CRC150232,Issued - Active,2018-07-05,2035-01-28,Barrhill Chertsey Irrigation Limited,EC257775,,CRC143165,nan, ,Ashburton,,4.0,2020-11-30,2.0,2019-01-08,4,17000.010000000002,K36/1050,Active,No,17000.0,8757.58,1,1,1.0,1.0,,,,No,,,,,,365.0,,take surface water,0.0,17000.0,,,YES,Poor Conditions,Yes,1,17000.0,,Jul,Jun,,,1,311385600.0,24129,,,,0.0,10604.508491866936,,62.37946171686433,,27995.0,K36/1037-M1,No data for K36/1050.,,,,,,,
10,CRC155937,Issued - Active,2015-08-28,2028-11-05,Selwyn District Council,EC118692,,CRC147355,nan, ,Selwyn - Waihora,,6.0,2019-06-07,1.0,2018-05-24,9,3920.0,BW21/0007,Active,No,20.0,20.0,1,1,1.0,1.0,,,,No,,,,,,365.0,,take surface water,0.0,3920.0,0.0,0.0,YES,"Unclear/poorly constructed conditions (purpose, wording, structure)",Yes,1,20.0,,Jul,Jun,,,1,50803200.0,18995,,,,0.0,3631.686744689989,,92.64507001760177,,,,,,,,,,,
11,CRC155937,Issued - Active,2015-08-28,2028-11-05,Selwyn District Council,EC118692,,CRC147355,nan, ,Selwyn - Waihora,,6.0,2019-06-07,1.0,2018-05-24,9,3920.0,L35/1146,Active,No,800.0,800.0,1,1,1.0,1.0,2019-07-09,No,,No,13255180.0,2019-06-29,364.0,1.0,364.0,1.0,,take surface water,0.0,3920.0,0.0,0.0,YES,"Unclear/poorly constructed conditions (purpose, wording, structure)",Yes,1,700.0,,Jul,Jun,,,1,50803200.0,18995,,,,0.0,3631.686744689989,,92.64507001760177,,20140.0,L35/1146-M1,,364.0,6.835050297843085,741.9270553588855,726.014559697508,0.041666666666666664,105.98957933698362,103.71636567107258
12,CRC155937,Issued - Active,2015-08-28,2028-11-05,Selwyn District Council,EC118692,,CRC147355,nan, ,Selwyn - Waihora,,6.0,2019-06-07,1.0,2018-05-24,9,3920.0,L35/1149,Active,No,40.0,40.0,1,1,,,,,,No,,,,,,365.0,,take surface water,0.0,3920.0,0.0,0.0,YES,"Unclear/poorly constructed conditions (purpose, wording, structure)",Yes,1,40.0,,Jul,Jun,,,1,50803200.0,18995,,,,0.0,3631.686744689989,,92.64507001760177,,20143.0,L35/1146-M1,No data for L35/1149.,,,,,,,
13,CRC155937,Issued - Active,2015-08-28,2028-11-05,Selwyn District Council,EC118692,,CRC147355,nan, ,Selwyn - Waihora,,6.0,2019-06-07,1.0,2018-05-24,9,3920.0,L35/1023,Active,No,280.0,280.0,1,1,1.0,1.0,2018-11-30,No,,No,2721839.0,2019-06-28,221.0,1.0,221.0,144.0,,take surface water,0.0,3920.0,0.0,0.0,YES,"Unclear/poorly constructed conditions (purpose, wording, structure)",Yes,1,280.0,,Jul,Jun,,,1,50803200.0,18995,,,,0.0,3631.686744689989,,92.64507001760177,,20139.0,L35/1023-M1,Not enough continuous data to check 300 day take Allocation at L35/1023-M1 = 0 m3,,,,,,,
14,CRC155937,Issued - Active,2015-08-28,2028-11-05,Selwyn District Council,EC118692,,CRC147355,nan, ,Selwyn - Waihora,,6.0,2019-06-07,1.0,2018-05-24,9,3920.0,L35/1148,Active,No,500.0,500.0,1,1,,,,,,No,,,,,,365.0,,take surface water,0.0,3920.0,0.0,0.0,YES,"Unclear/poorly constructed conditions (purpose, wording, structure)",Yes,1,500.0,,Jul,Jun,,,1,50803200.0,18995,,,,0.0,3631.686744689989,,92.64507001760177,,20142.0,L35/1146-M1,No data for L35/1148.,,,,,,,
15,CRC155937,Issued - Active,2015-08-28,2028-11-05,Selwyn District Council,EC118692,,CRC147355,nan, ,Selwyn - Waihora,,6.0,2019-06-07,1.0,2018-05-24,9,3920.0,L35/1147,Active,No,500.0,500.0,1,1,,,,,,No,,,,,,365.0,,take surface water,0.0,3920.0,0.0,0.0,YES,"Unclear/poorly constructed conditions (purpose, wording, structure)",Yes,1,500.0,,Jul,Jun,,,1,50803200.0,18995,,,,0.0,3631.686744689989,,92.64507001760177,,20141.0,L35/1146-M1,No data for L35/1147.,,,,,,,
16,CRC155937,Issued - Active,2015-08-28,2028-11-05,Selwyn District Council,EC118692,,CRC147355,nan, ,Selwyn - Waihora,,6.0,2019-06-07,1.0,2018-05-24,9,3920.0,L35/1150,Active,No,60.0,60.0,1,1,1.0,1.0,2019-08-15,No,,No,,,,,,365.0,,take surface water,0.0,3920.0,0.0,0.0,YES,"Unclear/poorly constructed conditions (purpose, wording, structure)",Yes,1,60.0,,Jul,Jun,,,1,50803200.0,18995,,,,0.0,3631.686744689989,,92.64507001760177,,20144.0,L35/1146-M1,No data for L35/1150.,,,,,,,
17,CRC155937,Issued - Active,2015-08-28,2028-11-05,Selwyn District Council,EC118692,,CRC147355,nan, ,Selwyn - Waihora,,6.0,2019-06-07,1.0,2018-05-24,9,3920.0,L35/1022,Active,No,630.0,630.0,1,1,1.0,1.0,2016-12-20,No,,No,,,,,,365.0,,take surface water,0.0,3920.0,0.0,0.0,YES,"Unclear/poorly constructed conditions (purpose, wording, structure)",Yes,1,630.0,,Jul,Jun,,,1,50803200.0,18995,,,,0.0,3631.686744689989,,92.64507001760177,,20138.0,L35/1022-M1,No data for BW21/0007.,,,,,,,
18,CRC155937,Issued - Active,2015-08-28,2028-11-05,Selwyn District Council,EC118692,,CRC147355,nan, ,Selwyn - Waihora,,6.0,2019-06-07,1.0,2018-05-24,9,3920.0,L35/1021,Active,No,1090.0,1090.0,1,1,1.0,1.0,2019-07-09,No,,No,14842914.0,2019-06-29,364.0,1.0,364.0,1.0,,take surface water,0.0,3920.0,0.0,0.0,YES,"Unclear/poorly constructed conditions (purpose, wording, structure)",Yes,1,1090.0,,Jul,Jun,,,1,50803200.0,18995,,,,0.0,3631.686744689989,,92.64507001760177,,20145.0,L35/1021-M1,,364.0,0.0,698.7185897827143,0.0,0.041666666666666664,64.10262291584534,0.0
19,CRC162202,Issued - Active,2016-02-18,2035-01-28,Ashburton Community Water Trust,EC364827,,CRC093683,nan, ,Selwyn - Waihora,,2.0,2019-03-14,0.0,,2,40000.0,BX21/0040,Active,No,5000.0,7575.76,2,2,1.0,1.0,2016-05-03,No,,No,52610325.0,2019-06-30,365.0,1.0,365.0,0.0,,take surface water,0.0,40000.0,0.0,0.0,Yes,Poor Conditions,Yes,1,5000.0,,Jul,May,,,1,1257984000.0,25151,,,,0.0,2888.774686859156,,7.221936717147891,,29596.0,BX21/0040-M1,,64.0,0.0,2888.774686859156,0.0,0.0,57.775493737183126,0.0
20,CRC162202,Issued - Active,2016-02-18,2035-01-28,Ashburton Community Water Trust,EC364827,,CRC093683,nan, ,Selwyn - Waihora,,2.0,2019-03-14,0.0,,2,40000.0,K36/1027,Active,Yes,40000.0,35000.0,1,1,,,,,,,,,,,,365.0,,take surface water,0.0,40000.0,0.0,0.0,Yes,Poor Conditions,Yes,1,40000.0,,Jul,May,,,1,1257984000.0,25151,,,,0.0,2888.774686859156,,7.221936717147891,,29597.0,BX21/0040-M1,No data for K36/1027.,,,,,,,
21,CRC166677,Issued - Active,2016-04-08,2031-11-18,Waimakariri Irrigation Limited,EC111432,,,nan, ,Waimakariri,,5.0,2018-11-22,0.0,,1,11041.0,L35/0906,Active,No,11041.0,11041.0,1,1,1.0,1.0,2016-12-01,No,,No,281768.0,2019-06-30,365.0,1.0,365.0,0.0,,take surface water,0.0,11041.0,0.0,0.0,YES,No,Yes,1,11041.0,,Jul,Jun,,,1,135561592.0,24041,,,,0.0,48.999998304578995,,0.4438003650446426,,27872.0,L35/0906-M1,,365.0,0.0,48.999998304578995,0.0,0.0,0.4438003650446426,0.0
22,CRC167218,Issued - Active,2016-06-17,2047-07-25,Central Plains Water Trust,EC107911,,CRC160803,nan, ,Selwyn - Waihora,,6.0,2018-11-07,0.0,,1,33500.0,K36/0958,Active,No,40000.0,33500.0,1,1,1.0,1.0,2015-11-15,No,,No,103113695.0,2019-06-30,365.0,1.0,365.0,0.0,,take surface water,0.0,40000.0,0.0,0.0,Yes,Poor Conditions,Yes,1,40000.0,,Jul,Jun,,,1,390000000.0,25128,,,,0.0,23013.888888888887,,57.534722222222214,,29557.0,K36/0958-M1,,365.0,0.0,23013.888888888887,0.0,4.041666666666667,57.534722222222214,0.0
23,CRC169502,Issued - Active,2016-07-05,2032-02-27,Ashburton District Council,EC117558,,CRC165320,nan, ,Ashburton,,4.0,2019-08-20,3.0,2019-03-20,13,2931.0,BY20/0088,Active,No,120.0,120.0,1,1,,,,,,No,921771.0,2019-06-29,287.0,1.0,287.0,78.0,,take surface water,0.0,2931.0,0.0,0.0,NO,"Multiple water permit types (Take, Divert, Dam)",No,1,120.0,,Jul,Jun,,,1,37985760.0,22962,,,,0.0,1101.9034395217834,,37.59479493421301,,26230.0,BY20/0088-M1,,364.0,1270.766290746,156.5621852874756,145.6243973555654,0.010416666666666666,130.468487739563,121.35366446297118
24,CRC169502,Issued - Active,2016-07-05,2032-02-27,Ashburton District Council,EC117558,,CRC165320,nan, ,Ashburton,,4.0,2019-08-20,3.0,2019-03-20,13,2931.0,K36/1031,Active,No,2500.0,1955.0,1,1,1.0,1.0,,,,No,15690456.0,2019-06-29,364.0,1.0,364.0,1.0,,take surface water,0.0,2931.0,0.0,0.0,NO,"Multiple water permit types (Take, Divert, Dam)",No,1,2500.0,,Jul,Jun,,,1,37985760.0,22962,,,,0.0,1101.9034395217834,,37.59479493421301,,26233.0,K36/1031-M1,,364.0,0.0,0.0,0.0,0.010416666666666666,0.0,0.0
25,CRC169502,Issued - Active,2016-07-05,2032-02-27,Ashburton District Council,EC117558,,CRC165320,nan, ,Ashburton,,4.0,2019-08-20,3.0,2019-03-20,13,2931.0,K37/2788,Active,No,80.0,80.0,1,1,1.0,1.0,,,,,924395.0,2019-06-29,238.0,1.0,238.0,127.0,,take surface water,0.0,2931.0,0.0,0.0,NO,"Multiple water permit types (Take, Divert, Dam)",No,1,80.0,,Jul,Jun,,,1,37985760.0,22962,,,,0.0,1101.9034395217834,,37.59479493421301,,26236.0,K37/2788-M1,,364.0,131.2467771062586,101.875,83.86261127418425,0.010416666666666666,127.34375,104.82826409273032
26,CRC169502,Issued - Active,2016-07-05,2032-02-27,Ashburton District Council,EC117558,,CRC165320,nan, ,Ashburton,,4.0,2019-08-20,3.0,2019-03-20,13,2931.0,K37/2792,Active,No,200.0,200.0,1,1,,,,,,,,,,,,365.0,,take surface water,0.0,2931.0,0.0,0.0,NO,"Multiple water permit types (Take, Divert, Dam)",No,1,200.0,,Jul,Jun,,,1,37985760.0,22962,,,,0.0,1101.9034395217834,,37.59479493421301,,26239.0,K37/2789-M1,No data for K37/2792.,,,,,,,
27,CRC169502,Issued - Active,2016-07-05,2032-02-27,Ashburton District Council,EC117558,,CRC165320,nan, ,Ashburton,,4.0,2019-08-20,3.0,2019-03-20,13,2931.0,BY20/0087,Active,No,100.0,50.0,1,1,,,,,,No,,,,,,365.0,,take surface water,0.0,2931.0,0.0,0.0,NO,"Multiple water permit types (Take, Divert, Dam)",No,1,100.0,,Jul,Jun,,,1,37985760.0,22962,,,,0.0,1101.9034395217834,,37.59479493421301,,,,,,,,,,,
28,CRC169502,Issued - Active,2016-07-05,2032-02-27,Ashburton District Council,EC117558,,CRC165320,nan, ,Ashburton,,4.0,2019-08-20,3.0,2019-03-20,13,2931.0,K36/0905,Active,No,110.0,110.0,1,1,1.0,1.0,2019-02-05,No,,,2440118.0,2019-06-29,364.0,1.0,364.0,1.0,,take surface water,0.0,2931.0,0.0,0.0,NO,"Multiple water permit types (Take, Divert, Dam)",No,1,110.0,,Jul,Jun,,,1,37985760.0,22962,,,,0.0,1101.9034395217834,,37.59479493421301,,26232.0,K36/0905-M1,,364.0,179.08486656135983,148.30078697204598,116.88039254941168,0.010416666666666666,134.81889724731454,106.25490231764698
29,CRC169502,Issued - Active,2016-07-05,2032-02-27,Ashburton District Council,EC117558,,CRC165320,nan, ,Ashburton,,4.0,2019-08-20,3.0,2019-03-20,13,2931.0,K37/2787,Active,No,120.0,120.0,1,1,1.0,1.0,,,,,803607.0,2019-06-29,364.0,1.0,364.0,1.0,,take surface water,0.0,2931.0,0.0,0.0,NO,"Multiple water permit types (Take, Divert, Dam)",No,1,120.0,,Jul,Jun,,,1,37985760.0,22962,,,,0.0,1101.9034395217834,,37.59479493421301,,26235.0,K37/2787-M1,,364.0,0.0,0.0,0.0,0.010416666666666666,0.0,0.0
30,CRC169502,Issued - Active,2016-07-05,2032-02-27,Ashburton District Council,EC117558,,CRC165320,nan, ,Ashburton,,4.0,2019-08-20,3.0,2019-03-20,13,2931.0,BY20/0085,Active,No,100.0,50.0,1,1,,,,,,No,,,,,,365.0,,take surface water,0.0,2931.0,0.0,0.0,NO,"Multiple water permit types (Take, Divert, Dam)",No,1,100.0,,Jul,Jun,,,1,37985760.0,22962,,,,0.0,1101.9034395217834,,37.59479493421301,,,,,,,,,,,
31,CRC169502,Issued - Active,2016-07-05,2032-02-27,Ashburton District Council,EC117558,,CRC165320,nan, ,Ashburton,,4.0,2019-08-20,3.0,2019-03-20,13,2931.0,K36/0904,Active,No,40.0,40.0,1,1,,,,,,,90022.0,2019-06-28,349.0,1.0,349.0,16.0,,take surface water,0.0,2931.0,0.0,0.0,NO,"Multiple water permit types (Take, Divert, Dam)",No,1,40.0,,Jul,Jun,,,1,37985760.0,22962,,,,0.0,1101.9034395217834,,37.59479493421301,,26231.0,K36/0904-M1,,362.0,12.327865112225215,48.3561515013378,44.437774296660336,1.0,120.89037875334449,111.09443574165083
32,CRC169502,Issued - Active,2016-07-05,2032-02-27,Ashburton District Council,EC117558,,CRC165320,nan, ,Ashburton,,4.0,2019-08-20,3.0,2019-03-20,13,2931.0,K37/2790,Active,No,20.0,20.0,1,1,,,,,,,,,,,,365.0,,take surface water,0.0,2931.0,0.0,0.0,NO,"Multiple water permit types (Take, Divert, Dam)",No,1,20.0,,Jul,Jun,,,1,37985760.0,22962,,,,0.0,1101.9034395217834,,37.59479493421301,,26238.0,K37/2789-M1,No data for K37/2790.,,,,,,,
33,CRC169502,Issued - Active,2016-07-05,2032-02-27,Ashburton District Council,EC117558,,CRC165320,nan, ,Ashburton,,4.0,2019-08-20,3.0,2019-03-20,13,2931.0,K37/2786,Active,No,56.0,56.0,1,1,1.0,1.0,2019-01-22,No,,,1324356.0,2019-06-29,364.0,1.0,364.0,1.0,,take surface water,0.0,2931.0,0.0,0.0,NO,"Multiple water permit types (Take, Divert, Dam)",No,1,56.0,,Jul,Jun,,,1,37985760.0,22962,,,,0.0,1101.9034395217834,,37.59479493421301,,26234.0,K37/2786-M1,,364.0,1810.0985500595305,95.85937499999993,61.59322602129339,0.010416666666666666,171.17745535714272,109.98790360945247
34,CRC169502,Issued - Active,2016-07-05,2032-02-27,Ashburton District Council,EC117558,,CRC165320,nan, ,Ashburton,,4.0,2019-08-20,3.0,2019-03-20,13,2931.0,K37/2789,Active,No,100.0,100.0,1,1,,,,,,,,,,,,365.0,,take surface water,0.0,2931.0,0.0,0.0,NO,"Multiple water permit types (Take, Divert, Dam)",No,1,100.0,,Jul,Jun,,,1,37985760.0,22962,,,,0.0,1101.9034395217834,,37.59479493421301,,26237.0,K37/2789-M1,No data for BY20/0087.,,,,,,,
35,CRC169502,Issued - Active,2016-07-05,2032-02-27,Ashburton District Council,EC117558,,CRC165320,nan, ,Ashburton,,4.0,2019-08-20,3.0,2019-03-20,13,2931.0,K37/2793,Active,No,30.0,30.0,1,1,,1.0,,,,,,,,,,365.0,,take surface water,0.0,2931.0,0.0,0.0,NO,"Multiple water permit types (Take, Divert, Dam)",No,1,30.0,,Jul,Jun,,,1,37985760.0,22962,,,,0.0,1101.9034395217834,,37.59479493421301,,26240.0,K37/2793-M1,No data for K37/2792.,,,,,,,
36,CRC172924,Issued - Active,2016-12-13,2031-11-18,Ngai Tahu Farming Limited,EC363816,,CRC169707,nan, ,Waimakariri,,2.0,2018-11-22,0.0,,1,3360.0,L35/1090,Active,Yes,3360.0,3360.0,1,1,,,,,,No,,,,,,365.0,,take surface water,42374886.0,3360.0,0.0,0.0,YES,Multiple allocation blocks,Yes,1,3360.0,,Jul,Jun,,,1,42374886.0,20345,No data for L35/1090-M1+L35/1090-M1,,,,,,,,22096.0,,No data for L35/1090.,,,,,,,
37,CRC172924,Issued - Active,2016-12-13,2031-11-18,Ngai Tahu Farming Limited,EC363816,,CRC169707,nan, ,Waimakariri,,2.0,2018-11-22,0.0,,1,3360.0,L35/1090,Active,Yes,3360.0,3360.0,1,1,,,,,,No,,,,,,365.0,,take surface water,42374886.0,3360.0,0.0,0.0,YES,Multiple allocation blocks,Yes,1,3360.0,,Jul,Jun,,,1,42374886.0,20345,No data for L35/1090-M1+L35/1090-M1,,,,,,,,22097.0,,No data for L35/1090.,,,,,,,
38,CRC172958,Issued - Active,2016-10-31,2031-12-19,Trustpower Limited,EC373739,,CRC960811.2,nan, ,Selwyn - Waihora,,2.0,2017-03-02,0.0,,1,30000.0,K34/0019,Active,No,30000.0,30000.0,1,1,,,,,,,,,,,,365.0,,take surface water,0.0,30000.0,0.0,0.0,NO,No,Yes,1,30000.0,,Jul,Jun,,,1,943488000.0,20840,No data for K34/0019-M1,,,,,,,,22843.0,,No data for K34/0019.,,,,,,,
39,CRC173064,Issued - Active,2016-10-28,2031-12-19,Trustpower Limited,EC373739,,CRC960822.2,nan, ,Selwyn - Waihora,,3.0,2018-11-23,0.0,,1,50000.0,K34/0020,Active,No,50000.0,50000.0,1,1,1.0,1.0,,,,,,,,,,365.0,,take surface water,0.0,50000.0,0.0,0.0,Yes,"Unclear/poorly constructed conditions (purpose, wording, structure)",No,1,50000.0,,Jul,Jun,,,1,1572480000.0,21883,"No data from  1-Jul-2018 00:00:00 to  1-Jul-2019 00:00:00: Take Rate Allocation for K34/0020-M1 = 50000.00 l/s
",,,,,,,,24391.0,K34/0020-M1,"No data from  1-Jul-2018 00:00:00 to  1-Jul-2019 00:00:00: Take Rate Allocation for K34/0020-M1 = 50000.00 l/s
",,,,,,,
40,CRC173079,Issued - Active,2016-10-28,2031-12-19,Trustpower Limited,EC373739,CRC182582,CRC960828.4,nan, ,Selwyn - Waihora,,4.0,2018-11-23,0.0,,1,40000.0,K34/0021,Active,No,40000.0,40000.0,1,1,1.0,1.0,,,,,,,,1.0,,365.0,,take surface water,0.0,40000.0,0.0,0.0,No,No,No,1,40000.0,,Jul,Jun,,,1,1257984000.0,24012,,,,0.0,35528.645833333336,,88.82161458333334,,27831.0,K34/0021-M1,,64.0,0.0,0.0,0.0,1.0,0.0,0.0
41,CRC173115,Issued - Active,2016-10-28,2031-12-19,Trustpower Limited,EC373739,,CRC960849.2,nan, ,Selwyn - Waihora,,4.0,2018-11-29,0.0,,1,39100.0,K35/0036,Active,No,39100.0,39100.0,1,1,1.0,1.0,,,,,,,,1.0,,365.0,,take surface water,0.0,39100.0,,,No,No,Yes,1,39100.0,,Jul,Jun,,,1,1229679360.0,25616,,,,477.52102341983056,39525.74074074076,39461.38451657917,101.08885099933698,100.92425707565005,30426.0,K35/0036-M1,,364.0,477.52102341983056,39525.74074074076,39461.38451657917,1.0,101.08885099933698,100.92425707565005
42,CRC173172,Issued - Active,2016-10-28,2031-12-19,Trustpower Limited,EC373739,,CRC960844.2,nan, ,Selwyn - Waihora,,4.0,2018-11-29,0.0,,1,4800.0,K35/0035,Active,No,4800.0,4800.0,1,1,1.0,1.0,,,,,,,,1.0,,365.0,,take surface water,0.0,4800.0,0.0,0.0,Yes,No,No,1,4800.0,,Jul,Jun,,,1,150958080.0,20839,"No data from  1-Jul-2018 00:00:00 to  1-Jul-2019 00:00:00: Take Rate Allocation for K35/0035-M1 = 4800.00 l/s
",,,,,,,,22842.0,K35/0035-M1,"No data from  1-Jul-2018 00:00:00 to  1-Jul-2019 00:00:00: Take Rate Allocation for K35/0035-M1 = 4800.00 l/s
",,,,,,,
43,CRC175118,Issued - Active,2017-06-15,2047-07-25,Central Plains Water Trust,EC107911,,CRC170594,nan, ,Selwyn - Waihora,,2.0,2017-12-07,0.0,,2,24000.0,BW22/0092,Inactive,No,2000.0,1846.0,1,1,1.0,1.0,,,,No,,,,,,365.0,,take surface water,0.0,24000.0,0.0,0.0,NO,Poor Conditions,Yes,1,2000.0,,Jul,Jun,,,1,0.0,17438,No data for N34/0361.,,,,,,,,17714.0,L35/1145-M1,No data for BW22/0092.,,,,,,,
44,CRC175118,Issued - Active,2017-06-15,2047-07-25,Central Plains Water Trust,EC107911,,CRC170594,nan, ,Selwyn - Waihora,,2.0,2017-12-07,0.0,,2,24000.0,L35/1145,Active,No,24000.0,22154.0,1,1,1.0,1.0,,,,No,,,,1.0,,365.0,,take surface water,0.0,24000.0,0.0,0.0,NO,Poor Conditions,Yes,1,24000.0,,Jul,Jun,,,1,0.0,17438,No data for N34/0361.,,,,,,,,17715.0,L35/1145-M1,No data for BW22/0092.,,,,,,,
45,CRC176489,Issued - Active,2017-06-14,2033-03-25,Amuri Irrigation Company Limited,EC115655,,CRC172843,nan, ,Hurunui - Waiau,,2.0,2018-12-05,0.0,,1,2416.0,N32/0345,Active,Yes,2416.0,2416.0,1,1,1.0,1.0,2017-02-24,No,,,,,,,,365.0,,take surface water,0.0,2416.0,0.0,0.0,YES,Poor Conditions,Yes,1,2416.0,,Jul,Jun,,,1,44820000.0,23980,No data for BY22/0037.,,,,,,,,27773.0,N32/0345-M1,No data for BY22/0037.,,,,,,,
46,CRC180528,Issued - Active,2017-09-08,2028-04-30,"Morven, Glenavy Ikawai Irrigation Company Limited",EC116610,,CRC897381C.2,nan, ,Lower Waitaki - South Coastal Canterbury,,1.0,2018-07-04,0.0,,1,14300.0,J41/0198,Active,No,14300.0,14300.0,1,1,1.0,1.0,2013-02-05,Yes,,No,293266151.0,2019-06-30,365.0,1.0,365.0,0.0,Pending Data Cleaning Project,take surface water,330000000.0,14300.0,0.0,0.0,NO,Poor Conditions,Yes,1,14300.0,,May,Sep,,,1,330000000.0,21856,,,,0.0,4158.5761108398465,,29.080951824054868,,24349.0,J41/0198-M1,,256.0,0.0,4158.5761108398465,0.0,7.052083333333333,29.080951824054868,0.0
47,CRC180532,Issued - Active,2017-09-08,2030-03-02,Lower Waitaki Irrigation Company Limited,EC115638,,CRC950649.1,nan, ,Lower Waitaki - South Coastal Canterbury,,2.0,2019-04-09,0.0,,2,27000.0,CB18/5011,Active,No,8220.0,8220.0,1,1,1.0,1.0,2017-09-08,No,,No,25767705.0,2019-06-29,364.0,1.0,364.0,1.0,,take surface water,0.0,27000.0,0.0,0.0,YES,No,Yes,1,8220.0,,Jul,Jun,,,1,98853994.0,18409,,,,0.0,21737.34195285365,,80.50867389945796,,19145.0,CB18/5011-M1,,364.0,0.0,6171.111111111111,0.0,0.010416666666666666,75.07434441741012,0.0
48,CRC180532,Issued - Active,2017-09-08,2030-03-02,Lower Waitaki Irrigation Company Limited,EC115638,,CRC950649.1,nan, ,Lower Waitaki - South Coastal Canterbury,,2.0,2019-04-09,0.0,,2,27000.0,J41/0191,Active,No,18780.0,18780.0,1,1,2.0,2.0,2019-07-17,No,,No,213477735.0,2019-06-29,364.0,2.0,182.0,183.0,,take surface water,0.0,27000.0,0.0,0.0,YES,No,Yes,1,18780.0,,Jul,Jun,,,1,98853994.0,18409,,,,0.0,21737.34195285365,,80.50867389945796,,19146.0,J41/0191-M1,,365.0,0.0,16236.737915039073,0.0,0.0,86.45760338146471,0.0
49,CRC180558,Issued - Active,2017-09-08,2045-05-21,Waihao Downs Irrigation,EC108499,,CRC164368,nan, ,Lower Waitaki - South Coastal Canterbury,,2.0,2018-08-29,0.0,,1,3060.0,J40/1015,Active,No,3060.0,3060.0,1,1,,,,,,No,,,,,,365.0,,take surface water,38000000.0,3060.0,264384.0,1.0,YES,No,Yes,1,3060.0,3060.0,Jul,Jun,264384.0,1,1,38000000.0,20316,No data for J40/1015-M1,,,,,,,,22048.0,,No data for J40/1015.,,,,,,,
50,CRC182542,Issued - Active,2007-01-31,2042-01-31,Rangitata Diversion Race Management Limited,EC114929,,CRC011237,nan, ,Ashburton,,2.0,2018-11-09,0.0,,1,61400.0,J36/0016,Active,No,30700.0,61400.0,1,1,1.0,1.0,2019-08-04,No,,No,800207940.0,2019-06-29,364.0,1.0,364.0,1.0,,take surface water,0.0,30700.0,0.0,0.0,YES,Multiple allocation blocks,Yes,1,16900.0,,Sep,May,,,1,309553920.0,25568,,,,8687.942616449065,98952.54528808582,79704.28833038147,322.3209944237323,259.6230890240439,30348.0,J36/0016-M1,,365.0,8002.560284098784,32984.18176269532,27580.88090690088,0.0,195.17267315204333,163.20047873905844
51,CRC182542,Issued - Active,2007-01-31,2042-01-31,Rangitata Diversion Race Management Limited,EC114929,,CRC011237,nan, ,Ashburton,,2.0,2018-11-09,0.0,,1,61400.0,J36/0016,Active,No,30700.0,61400.0,1,1,1.0,1.0,2019-08-04,No,,No,800207940.0,2019-06-29,364.0,1.0,364.0,1.0,,take surface water,0.0,30700.0,0.0,0.0,YES,Multiple allocation blocks,Yes,1,30700.0,,Jun,Aug,,,1,309553920.0,25568,,,,8687.942616449065,98952.54528808582,79704.28833038147,322.3209944237323,259.6230890240439,30350.0,J36/0016-M1,,365.0,386.50161307877966,32984.18176269532,30784.83013979853,0.0,107.44033147457759,100.27631967361086
52,CRC191331,Issued - Active,2018-10-30,2033-09-30,Christchurch City Council,EC366614,CRC194217,CRC180837,Parent,CRC180837,Christchurch - West Melton,,4.0,2019-10-07,1.0,2019-07-15,153,6798.329999999996,BX23/0228,Active,No,34.72,34.72,1,1,1.0,1.0,2015-06-15,No,,No,1104661.0,2019-06-30,354.0,1.0,354.0,11.0,,take groundwater,73654978.0,6879.0,4160621.0,7.0,No,Poor Conditions,Complex,1,34.72,34.72,Jul,Jun,20999.0,7,1,73654978.0,25529,Too many meters in the consent.  The maximum is 100,,,,,,,,30126.0,BX23/0228-M1,,308.0,8331.33302256253,63.751320309109154,37.497664140703705,0.0,183.61555388568306,108.00018473704984
53,CRC191331,Issued - Active,2018-10-30,2033-09-30,Christchurch City Council,EC366614,CRC194217,CRC180837,Parent,CRC180837,Christchurch - West Melton,,4.0,2019-10-07,1.0,2019-07-15,153,6798.329999999996,BX24/0153,Active,No,64.81,64.81,1,1,1.0,1.0,2019-08-20,No,,No,75382.0,2019-06-30,352.0,1.0,352.0,13.0,,take groundwater,73654978.0,6879.0,4160621.0,7.0,No,Poor Conditions,Complex,1,64.81,64.81,Jul,Jun,39197.0,7,1,73654978.0,25529,Too many meters in the consent.  The maximum is 100,,,,,,,,30129.0,BX24/0153-M1,,0.0,0.0,35.481529235839844,0.0,0.0,54.74699774084222,0.0
54,CRC191331,Issued - Active,2018-10-30,2033-09-30,Christchurch City Council,EC366614,CRC194217,CRC180837,Parent,CRC180837,Christchurch - West Melton,,4.0,2019-10-07,1.0,2019-07-15,153,6798.329999999996,BX24/0189,Active,No,24.25,24.25,1,1,1.0,1.0,2017-07-14,No,,No,257485.0,2019-06-29,234.0,1.0,234.0,131.0,,take groundwater,73654978.0,6879.0,4160621.0,7.0,No,Poor Conditions,Complex,1,24.25,24.25,Jul,Jun,14666.0,7,1,73654978.0,25529,Too many meters in the consent.  The maximum is 100,,,,,,,,30132.0,BX24/0189-M1,,13.0,1011.8268997572528,27.544304529825844,25.16918165964023,0.0,113.58476094773545,103.79043983356797
55,CRC191331,Issued - Active,2018-10-30,2033-09-30,Christchurch City Council,EC366614,CRC194217,CRC180837,Parent,CRC180837,Christchurch - West Melton,,4.0,2019-10-07,1.0,2019-07-15,153,6798.329999999996,BX24/0192,Active,No,28.33,28.33,1,1,1.0,1.0,2017-07-11,No,,No,2870.0,2019-06-30,247.0,1.0,247.0,118.0,Pending Data Cleaning Project,take groundwater,73654978.0,6879.0,4160621.0,7.0,No,Poor Conditions,Complex,1,28.33,28.33,Jul,Jun,17133.0,7,1,73654978.0,25529,Too many meters in the consent.  The maximum is 100,,,,,,,,30135.0,BX24/0192-M1,,0.0,6.498123431073295,47.682270473904076,36.797569321875926,212.67708333333331,168.31016757467023,129.88905514252005
56,CRC191331,Issued - Active,2018-10-30,2033-09-30,Christchurch City Council,EC366614,CRC194217,CRC180837,Parent,CRC180837,Christchurch - West Melton,,4.0,2019-10-07,1.0,2019-07-15,153,6798.329999999996,BX24/0412,Active,No,52.08,52.08,1,1,1.0,1.0,2017-06-30,No,,No,117734.0,2019-06-30,346.0,1.0,346.0,19.0,,take groundwater,73654978.0,6879.0,4160621.0,7.0,No,Poor Conditions,Complex,1,52.08,52.08,Jul,Jun,31498.0,7,1,73654978.0,25529,Too many meters in the consent.  The maximum is 100,,,,,,,,30142.0,BX24/0412-M1,,0.0,0.0,43.6971812778049,0.0,0.0,83.90395790669145,0.0
57,CRC191331,Issued - Active,2018-10-30,2033-09-30,Christchurch City Council,EC366614,CRC194217,CRC180837,Parent,CRC180837,Christchurch - West Melton,,4.0,2019-10-07,1.0,2019-07-15,153,6798.329999999996,BX24/0533,Active,No,29.76,29.76,1,1,,,,,2019-01-28 12:10:00,Yes,,,,,,365.0,,take groundwater,73654978.0,6879.0,4160621.0,7.0,No,Poor Conditions,Complex,1,29.76,29.76,Jul,Jun,17999.0,7,1,73654978.0,25529,Too many meters in the consent.  The maximum is 100,,,,,,,,30145.0,BX24/0457-M1,No data for BX24/0533.,,,,,,,
58,CRC191331,Issued - Active,2018-10-30,2033-09-30,Christchurch City Council,EC366614,CRC194217,CRC180837,Parent,CRC180837,Christchurch - West Melton,,4.0,2019-10-07,1.0,2019-07-15,153,6798.329999999996,BX24/0625,Active,No,38.03,38.03,1,1,1.0,,,,2019-01-28 12:06:00,Yes,,,,1.0,,365.0,,take groundwater,73654978.0,6879.0,4160621.0,7.0,No,Poor Conditions,Complex,1,38.03,38.03,Jul,Jun,23000.0,7,1,73654978.0,25529,Too many meters in the consent.  The maximum is 100,,,,,,,,30148.0,BX24/0625-M1,No data for BX24/0533.,,,,,,,
59,CRC191331,Issued - Active,2018-10-30,2033-09-30,Christchurch City Council,EC366614,CRC194217,CRC180837,Parent,CRC180837,Christchurch - West Melton,,4.0,2019-10-07,1.0,2019-07-15,153,6798.329999999996,BX24/0993,Active,No,34.72,34.72,1,1,1.0,1.0,2016-05-04,No,,No,87327.0,2019-06-30,354.0,1.0,354.0,11.0,,take groundwater,73654978.0,6879.0,4160621.0,7.0,No,Poor Conditions,Complex,1,34.72,34.72,Jul,Jun,20999.0,7,1,73654978.0,25529,Too many meters in the consent.  The maximum is 100,,,,,,,,30151.0,BX24/0993-M1,,0.0,41.11396927740839,39.54608705308702,35.7420655210575,0.0,113.90002031419073,102.94373709981998
60,CRC191331,Issued - Active,2018-10-30,2033-09-30,Christchurch City Council,EC366614,CRC194217,CRC180837,Parent,CRC180837,Christchurch - West Melton,,4.0,2019-10-07,1.0,2019-07-15,153,6798.329999999996,M35/10632,Active,No,57.87,57.87,1,1,1.0,1.0,2017-04-28,No,,No,45666.0,2019-06-30,352.0,1.0,352.0,13.0,,take groundwater,73654978.0,6879.0,4160621.0,7.0,No,Poor Conditions,Complex,1,57.87,57.87,Jul,Jun,35000.0,7,1,73654978.0,25529,Too many meters in the consent.  The maximum is 100,,,,,,,,30158.0,M35/10632-M1,,0.0,0.0,36.10863897535536,0.0,0.0,62.39612748462997,0.0
61,CRC191331,Issued - Active,2018-10-30,2033-09-30,Christchurch City Council,EC366614,CRC194217,CRC180837,Parent,CRC180837,Christchurch - West Melton,,4.0,2019-10-07,1.0,2019-07-15,153,6798.329999999996,M35/1475,Active,No,62.75,62.75,1,1,1.0,1.0,2015-10-13,No,,No,649386.0,2019-06-29,351.0,1.0,351.0,14.0,,take groundwater,73654978.0,6879.0,4160621.0,7.0,No,Poor Conditions,Complex,1,62.75,62.75,Jul,Jun,37951.0,7,1,73654978.0,25529,Too many meters in the consent.  The maximum is 100,,,,,,,,30161.0,M35/1475-M1,,0.0,0.0,61.22345182630751,0.0,0.0,97.56725390646615,0.0
62,CRC191331,Issued - Active,2018-10-30,2033-09-30,Christchurch City Council,EC366614,CRC194217,CRC180837,Parent,CRC180837,Christchurch - West Melton,,4.0,2019-10-07,1.0,2019-07-15,153,6798.329999999996,M35/1554,Active,No,40.51,40.51,1,1,1.0,1.0,,,,No,8375.0,2019-06-30,67.0,1.0,67.0,298.0,,take groundwater,73654978.0,6879.0,4160621.0,7.0,No,Poor Conditions,Complex,1,40.51,40.51,Jul,Jun,24500.0,7,1,73654978.0,25529,Too many meters in the consent.  The maximum is 100,,,,,,,,30164.0,M35/1554-M1,,0.0,0.0,27.656619813707138,0.0,298.59375,68.27109309727756,0.0
63,CRC191331,Issued - Active,2018-10-30,2033-09-30,Christchurch City Council,EC366614,CRC194217,CRC180837,Parent,CRC180837,Christchurch - West Melton,,4.0,2019-10-07,1.0,2019-07-15,153,6798.329999999996,M35/1864,Active,No,21.67,21.67,1,1,1.0,1.0,2017-12-04,No,,No,375830.0,2019-06-30,351.0,1.0,351.0,14.0,,take groundwater,73654978.0,6879.0,4160621.0,7.0,No,Poor Conditions,Complex,1,21.67,21.67,Jul,Jun,13104.0,7,1,73654978.0,25529,Too many meters in the consent.  The maximum is 100,,,,,,,,30171.0,M35/1864-M1,,8.0,3541.523362821076,427.44017468558417,26.187488325732602,0.0,1972.4973451111402,120.84673892816151
64,CRC191331,Issued - Active,2018-10-30,2033-09-30,Christchurch City Council,EC366614,CRC194217,CRC180837,Parent,CRC180837,Christchurch - West Melton,,4.0,2019-10-07,1.0,2019-07-15,153,6798.329999999996,M35/1870,Active,No,23.15,23.15,1,1,1.0,1.0,2017-06-28,No,,No,42794.0,2019-06-30,353.0,1.0,353.0,12.0,,take groundwater,73654978.0,6879.0,4160621.0,7.0,No,Poor Conditions,Complex,1,23.15,23.15,Jul,Jun,14000.0,7,1,73654978.0,25529,Too many meters in the consent.  The maximum is 100,,,,,,,,30174.0,M35/1870-M1,,0.0,266.7121501321263,37.81236224704318,33.01277841612159,0.0,163.33633800018654,142.60379445408896
65,CRC191331,Issued - Active,2018-10-30,2033-09-30,Christchurch City Council,EC366614,CRC194217,CRC180837,Parent,CRC180837,Christchurch - West Melton,,4.0,2019-10-07,1.0,2019-07-15,153,6798.329999999996,M35/18734,Active,No,41.44,41.44,1,1,1.0,1.0,2019-08-21,No,,No,53910.0,2019-06-30,352.0,1.0,352.0,13.0,,take groundwater,73654978.0,6879.0,4160621.0,7.0,No,Poor Conditions,Complex,1,41.44,41.44,Jul,Jun,25060.0,7,1,73654978.0,25529,Too many meters in the consent.  The maximum is 100,,,,,,,,30177.0,M35/18734-M1,,7.0,9.605895921654172,6937.920464409722,165.82620748392037,0.0,16742.086062764774,400.1597670944024
66,CRC191331,Issued - Active,2018-10-30,2033-09-30,Christchurch City Council,EC366614,CRC194217,CRC180837,Parent,CRC180837,Christchurch - West Melton,,4.0,2019-10-07,1.0,2019-07-15,153,6798.329999999996,M35/1976,Inactive,No,23.15,23.15,1,1,,,,,,No,,,,,,365.0,,take groundwater,73654978.0,6879.0,4160621.0,7.0,No,Poor Conditions,Complex,1,23.15,23.15,Jul,Jun,14000.0,7,1,73654978.0,25529,Too many meters in the consent.  The maximum is 100,,,,,,,,30180.0,M35/1945-M1,No data for M35/1976.,,,,,,,
67,CRC191331,Issued - Active,2018-10-30,2033-09-30,Christchurch City Council,EC366614,CRC194217,CRC180837,Parent,CRC180837,Christchurch - West Melton,,4.0,2019-10-07,1.0,2019-07-15,153,6798.329999999996,M35/2270,Active,No,35.0,35.0,1,1,1.0,1.0,2017-06-30,No,,No,791585.0,2019-06-30,353.0,1.0,353.0,12.0,,take groundwater,73654978.0,6879.0,4160621.0,7.0,No,Poor Conditions,Complex,1,35.0,35.0,Jul,Jun,21168.0,7,1,73654978.0,25529,Too many meters in the consent.  The maximum is 100,,,,,,,,30187.0,M35/2270-M1,,5.0,903.4376635881265,39.93194686041938,35.50332802376215,0.0,114.09127674405536,101.43808006789186
68,CRC191331,Issued - Active,2018-10-30,2033-09-30,Christchurch City Council,EC366614,CRC194217,CRC180837,Parent,CRC180837,Christchurch - West Melton,,4.0,2019-10-07,1.0,2019-07-15,153,6798.329999999996,M35/2274,Active,Yes,50.15,50.15,1,1,,1.0,,,,No,800504.0,2019-06-30,352.0,1.0,352.0,13.0,,take groundwater,73654978.0,6879.0,4160621.0,7.0,No,Poor Conditions,Complex,1,50.15,50.15,Jul,Jun,30331.0,7,1,73654978.0,25529,Too many meters in the consent.  The maximum is 100,,,,,,,,30190.0,M35/2274-M1,,17.0,1816.5114871267479,169.16778564453125,69.32347524639181,0.0,337.3236004875997,138.23225373158886
69,CRC191331,Issued - Active,2018-10-30,2033-09-30,Christchurch City Council,EC366614,CRC194217,CRC180837,Parent,CRC180837,Christchurch - West Melton,,4.0,2019-10-07,1.0,2019-07-15,153,6798.329999999996,M35/2403,Active,No,23.15,23.15,1,1,1.0,1.0,,,,No,42794.0,2019-06-30,353.0,1.0,353.0,12.0,,take groundwater,73654978.0,6879.0,4160621.0,7.0,No,Poor Conditions,Complex,1,23.15,23.15,Jul,Jun,14000.0,7,1,73654978.0,25529,Too many meters in the consent.  The maximum is 100,,,,,,,,30193.0,M35/2403-M1,,0.0,266.7121501321263,37.81236224704318,33.01277841612159,0.0,163.33633800018654,142.60379445408896
70,CRC191331,Issued - Active,2018-10-30,2033-09-30,Christchurch City Council,EC366614,CRC194217,CRC180837,Parent,CRC180837,Christchurch - West Melton,,4.0,2019-10-07,1.0,2019-07-15,153,6798.329999999996,M35/2554,Active,No,61.73,61.73,1,1,1.0,1.0,2017-06-13,No,,No,690674.0,2019-06-30,352.0,1.0,352.0,13.0,,take groundwater,73654978.0,6879.0,4160621.0,7.0,No,Poor Conditions,Complex,1,61.73,61.73,Jul,Jun,37333.0,7,1,73654978.0,25529,Too many meters in the consent.  The maximum is 100,,,,,,,,30196.0,M35/2554-M1,,0.0,0.0,56.29432678222656,0.0,0.0,91.19443833181042,0.0
71,CRC191331,Issued - Active,2018-10-30,2033-09-30,Christchurch City Council,EC366614,CRC194217,CRC180837,Parent,CRC180837,Christchurch - West Melton,,4.0,2019-10-07,1.0,2019-07-15,153,6798.329999999996,M35/2790,Active,No,28.94,28.94,1,1,1.0,1.0,2013-05-15,Yes,,No,116879.0,2019-06-30,353.0,1.0,353.0,12.0,,take groundwater,73654978.0,6879.0,4160621.0,7.0,No,Poor Conditions,Complex,1,28.94,28.94,Jul,Jun,17500.0,7,1,73654978.0,25529,Too many meters in the consent.  The maximum is 100,,,,,,,,30203.0,M35/2790-M1,,9.0,779.8798145335251,68.20085525512695,44.52941670189887,0.0,235.66294144826173,153.86806047649918
72,CRC191331,Issued - Active,2018-10-30,2033-09-30,Christchurch City Council,EC366614,CRC194217,CRC180837,Parent,CRC180837,Christchurch - West Melton,,4.0,2019-10-07,1.0,2019-07-15,153,6798.329999999996,M35/3446,Active,No,71.76,71.76,1,1,1.0,1.0,2017-05-22,No,,No,11235.0,2019-06-30,352.0,1.0,352.0,13.0,,take groundwater,73654978.0,6879.0,4160621.0,7.0,No,Poor Conditions,Complex,1,71.76,71.76,Jul,Jun,43400.0,7,1,73654978.0,25529,Too many meters in the consent.  The maximum is 100,,,,,,,,30206.0,M35/3446-M1,,0.0,0.0,31.092149946424694,0.0,0.0,43.327968152765735,0.0
73,CRC191331,Issued - Active,2018-10-30,2033-09-30,Christchurch City Council,EC366614,CRC194217,CRC180837,Parent,CRC180837,Christchurch - West Melton,,4.0,2019-10-07,1.0,2019-07-15,153,6798.329999999996,M35/3660,Inactive,Yes,9.05,9.05,1,1,,1.0,,,,No,11265.0,2018-12-05,157.0,1.0,157.0,208.0,,take groundwater,73654978.0,6879.0,4160621.0,7.0,No,Poor Conditions,Complex,1,9.05,9.05,Jul,Jun,5473.0,7,1,73654978.0,25529,Too many meters in the consent.  The maximum is 100,,,,,,,,30209.0,M35/3660-M1,,0.0,97.45438237190247,12.582140498691135,10.548146297173275,206.04166666666666,139.0291767811175,116.5541027311964
74,CRC191331,Issued - Active,2018-10-30,2033-09-30,Christchurch City Council,EC366614,CRC194217,CRC180837,Parent,CRC180837,Christchurch - West Melton,,4.0,2019-10-07,1.0,2019-07-15,153,6798.329999999996,M35/5830,Active,No,75.0,75.0,1,1,1.0,1.0,2017-06-14,No,,No,9258.0,2019-06-30,67.0,1.0,67.0,298.0,,take groundwater,73654978.0,6879.0,4160621.0,7.0,No,Poor Conditions,Complex,1,75.0,75.0,Jul,Jun,45360.0,7,1,73654978.0,25529,Too many meters in the consent.  The maximum is 100,,,,,,,,30216.0,M35/5830-M1,,0.0,0.0,52.30846405029297,0.0,299.34375,69.74461873372397,0.0
75,CRC191331,Issued - Active,2018-10-30,2033-09-30,Christchurch City Council,EC366614,CRC194217,CRC180837,Parent,CRC180837,Christchurch - West Melton,,4.0,2019-10-07,1.0,2019-07-15,153,6798.329999999996,M35/6213,Active,No,15.05,15.05,1,1,1.0,1.0,2017-10-18,No,,No,144038.0,2019-06-30,352.0,1.0,352.0,13.0,,take groundwater,73654978.0,6879.0,4160621.0,7.0,No,Poor Conditions,Complex,1,15.05,15.05,Jul,Jun,9100.0,7,1,73654978.0,25529,Too many meters in the consent.  The maximum is 100,,,,,,,,30219.0,M35/6213-M1,,0.0,256.9740525962247,23.287873797946506,17.807380847671197,0.0,154.73670297638873,118.32146742638669
76,CRC191331,Issued - Active,2018-10-30,2033-09-30,Christchurch City Council,EC366614,CRC194217,CRC180837,Parent,CRC180837,Christchurch - West Melton,,4.0,2019-10-07,1.0,2019-07-15,153,6798.329999999996,M35/7180,Active,No,11.46,11.46,1,1,1.0,1.0,2017-05-22,No,,No,26153.0,2019-06-30,352.0,1.0,352.0,13.0,,take groundwater,73654978.0,6879.0,4160621.0,7.0,No,Poor Conditions,Complex,1,11.46,11.46,Jul,Jun,6930.0,7,1,73654978.0,25529,Too many meters in the consent.  The maximum is 100,,,,,,,,30222.0,M35/7180-M1,,0.0,31.19304439491696,92.14622497558594,27.760864557106743,0.0,804.0682807642751,242.24140102187383
77,CRC191331,Issued - Active,2018-10-30,2033-09-30,Christchurch City Council,EC366614,CRC194217,CRC180837,Parent,CRC180837,Christchurch - West Melton,,4.0,2019-10-07,1.0,2019-07-15,153,6798.329999999996,M35/7291,Active,Yes,11.46,11.46,1,1,,1.0,,,,No,99785.0,2019-06-30,352.0,1.0,352.0,13.0,,take groundwater,73654978.0,6879.0,4160621.0,7.0,No,Poor Conditions,Complex,1,11.46,11.46,Jul,Jun,6930.0,7,1,73654978.0,25529,Too many meters in the consent.  The maximum is 100,,,,,,,,30225.0,M35/7291-M1,,17.0,702.7215581987964,36.99748314089245,14.586222164764877,0.0,322.8401670234943,127.2794255215085
78,CRC191331,Issued - Active,2018-10-30,2033-09-30,Christchurch City Council,EC366614,CRC194217,CRC180837,Parent,CRC180837,Christchurch - West Melton,,4.0,2019-10-07,1.0,2019-07-15,153,6798.329999999996,M35/8147,Active,No,70.0,70.0,1,1,1.0,1.0,2018-08-07,No,,No,5.0,2019-06-30,353.0,1.0,353.0,12.0,,take groundwater,73654978.0,6879.0,4160621.0,7.0,No,Poor Conditions,Complex,1,70.0,70.0,Jul,Jun,42336.0,7,1,73654978.0,25529,Too many meters in the consent.  The maximum is 100,,,,,,,,30232.0,M35/8147-M1,,0.0,0.0,0.6224206421110365,0.0,0.0,0.8891723458729094,0.0
79,CRC191331,Issued - Active,2018-10-30,2033-09-30,Christchurch City Council,EC366614,CRC194217,CRC180837,Parent,CRC180837,Christchurch - West Melton,,4.0,2019-10-07,1.0,2019-07-15,153,6798.329999999996,M35/8896,Active,No,23.33,23.33,1,1,1.0,1.0,2017-04-12,No,,No,836854.0,2019-06-30,352.0,1.0,352.0,13.0,,take groundwater,73654978.0,6879.0,4160621.0,7.0,No,Poor Conditions,Complex,1,23.33,23.33,Jul,Jun,14110.0,7,1,73654978.0,25529,Too many meters in the consent.  The maximum is 100,,,,,,,,30235.0,M35/8896-M1,,264.0,5962.292770920727,60.642899407280815,37.249754291023805,0.0,259.9352739274789,159.66461333486416
80,CRC191331,Issued - Active,2018-10-30,2033-09-30,Christchurch City Council,EC366614,CRC194217,CRC180837,Parent,CRC180837,Christchurch - West Melton,,4.0,2019-10-07,1.0,2019-07-15,153,6798.329999999996,M35/8972,Active,No,64.81,64.81,1,1,1.0,1.0,2017-11-09,No,,No,32793.0,2019-06-30,350.0,1.0,350.0,15.0,,take groundwater,73654978.0,6879.0,4160621.0,7.0,No,Poor Conditions,Complex,1,64.81,64.81,Jul,Jun,39197.0,7,1,73654978.0,25529,Too many meters in the consent.  The maximum is 100,,,,,,,,30238.0,M35/8972-M1,,0.0,0.4736984576119317,66.3844362894694,65.50344891018338,0.0,102.42931073826477,101.06997208792374
81,CRC191331,Issued - Active,2018-10-30,2033-09-30,Christchurch City Council,EC366614,CRC194217,CRC180837,Parent,CRC180837,Christchurch - West Melton,,4.0,2019-10-07,1.0,2019-07-15,153,6798.329999999996,M35/9439,Active,No,34.17,34.17,1,1,1.0,1.0,,,,No,377927.0,2019-06-30,352.0,1.0,352.0,13.0,,take groundwater,73654978.0,6879.0,4160621.0,7.0,No,Poor Conditions,Complex,1,34.17,34.17,Jul,Jun,20666.0,7,1,73654978.0,25529,Too many meters in the consent.  The maximum is 100,,,,,,,,30241.0,M35/9439-M1,,44.0,2230.805665371683,49.03900570339626,37.2107047891227,0.0,143.5147957371854,108.89875560176382
82,CRC191331,Issued - Active,2018-10-30,2033-09-30,Christchurch City Council,EC366614,CRC194217,CRC180837,Parent,CRC180837,Christchurch - West Melton,,4.0,2019-10-07,1.0,2019-07-15,153,6798.329999999996,M36/1055,Active,No,25.85,25.85,1,1,1.0,1.0,,,,No,163246.0,2019-06-30,350.0,1.0,350.0,15.0,,take groundwater,73654978.0,6879.0,4160621.0,7.0,No,Poor Conditions,Complex,1,25.85,25.85,Jul,Jun,15633.0,7,1,73654978.0,25529,Too many meters in the consent.  The maximum is 100,,,,,,,,30248.0,M36/1055-M1,,0.0,4.659734980795118,50.07074991861979,32.6660739745563,0.0,193.69729175481544,126.36779100408626
83,CRC191331,Issued - Active,2018-10-30,2033-09-30,Christchurch City Council,EC366614,CRC194217,CRC180837,Parent,CRC180837,Christchurch - West Melton,,4.0,2019-10-07,1.0,2019-07-15,153,6798.329999999996,M36/1195,Active,Yes,58.61,58.61,1,1,,1.0,,,,No,766480.0,2019-06-30,352.0,1.0,352.0,13.0,,take groundwater,73654978.0,6879.0,4160621.0,7.0,No,Poor Conditions,Complex,1,58.61,58.61,Jul,Jun,35447.0,7,1,73654978.0,25529,Too many meters in the consent.  The maximum is 100,,,,,,,,30251.0,M36/1195-M1,,0.0,717.4824811387062,125.60528649224175,67.98262814030477,0.0,214.30692116062403,115.99151704539288
84,CRC191331,Issued - Active,2018-10-30,2033-09-30,Christchurch City Council,EC366614,CRC194217,CRC180837,Parent,CRC180837,Christchurch - West Melton,,4.0,2019-10-07,1.0,2019-07-15,153,6798.329999999996,M36/1225,Active,No,34.72,34.72,1,1,1.0,1.0,,,,No,970593.0,2019-06-30,352.0,1.0,352.0,13.0,,take groundwater,73654978.0,6879.0,4160621.0,7.0,No,Poor Conditions,Complex,1,34.72,34.72,Jul,Jun,20999.0,7,1,73654978.0,25529,Too many meters in the consent.  The maximum is 100,,,,,,,,30254.0,M36/1225-M1,,74.0,6557.182806353834,35.82655376858181,34.76497559674681,0.0,103.18707882656051,100.1295380090634
85,CRC191331,Issued - Active,2018-10-30,2033-09-30,Christchurch City Council,EC366614,CRC194217,CRC180837,Parent,CRC180837,Christchurch - West Melton,,4.0,2019-10-07,1.0,2019-07-15,153,6798.329999999996,M36/20558,Inactive,No,46.88,46.88,1,1,,,,,2019-01-28 12:05:00,Yes,,,,,,365.0,,take groundwater,73654978.0,6879.0,4160621.0,7.0,No,Poor Conditions,Complex,1,46.88,46.88,Jul,Jun,28350.0,7,1,73654978.0,25529,Too many meters in the consent.  The maximum is 100,,,,,,,,30261.0,M36/20557-M1,No data for M36/20558.,,,,,,,
86,CRC191331,Issued - Active,2018-10-30,2033-09-30,Christchurch City Council,EC366614,CRC194217,CRC180837,Parent,CRC180837,Christchurch - West Melton,,4.0,2019-10-07,1.0,2019-07-15,153,6798.329999999996,M36/20671,Active,No,70.0,70.0,1,1,1.0,1.0,2018-02-26,No,,No,769612.0,2019-06-30,352.0,1.0,352.0,13.0,,take groundwater,73654978.0,6879.0,4160621.0,7.0,No,Poor Conditions,Complex,1,70.0,70.0,Jul,Jun,42336.0,7,1,73654978.0,25529,Too many meters in the consent.  The maximum is 100,,,,,,,,30264.0,M36/20671-M1,,0.0,0.0,53.168837229410805,0.0,0.0,75.95548175630114,0.0
87,CRC191331,Issued - Active,2018-10-30,2033-09-30,Christchurch City Council,EC366614,CRC194217,CRC180837,Parent,CRC180837,Christchurch - West Melton,,4.0,2019-10-07,1.0,2019-07-15,153,6798.329999999996,M36/2828,Active,Yes,58.61,58.61,1,1,,1.0,,,,No,798876.0,2019-06-30,352.0,1.0,352.0,13.0,,take groundwater,73654978.0,6879.0,4160621.0,7.0,No,Poor Conditions,Complex,1,58.61,58.61,Jul,Jun,35447.0,7,1,73654978.0,25529,Too many meters in the consent.  The maximum is 100,,,,,,,,30267.0,M36/2828-M1,,0.0,830.2409633951717,130.25899675157333,67.93232357606837,0.0,222.24705127379858,115.90568772576073
88,CRC191331,Issued - Active,2018-10-30,2033-09-30,Christchurch City Council,EC366614,CRC194217,CRC180837,Parent,CRC180837,Christchurch - West Melton,,4.0,2019-10-07,1.0,2019-07-15,153,6798.329999999996,M36/4053,Active,No,54.98,54.98,1,1,1.0,1.0,,,,No,22510.0,2019-06-30,327.0,1.0,327.0,38.0,,take groundwater,73654978.0,6879.0,4160621.0,7.0,No,Poor Conditions,Complex,1,54.98,54.98,Jul,Jun,33250.0,7,1,73654978.0,25529,Too many meters in the consent.  The maximum is 100,,,,,,,,30270.0,M36/4053-M1,,0.0,65.77442050072882,147.90035671657986,70.56824063592217,0.0,269.00756041575096,128.35256572557688
89,CRC191331,Issued - Active,2018-10-30,2033-09-30,Christchurch City Council,EC366614,CRC194217,CRC180837,Parent,CRC180837,Christchurch - West Melton,,4.0,2019-10-07,1.0,2019-07-15,153,6798.329999999996,M36/8288,Active,No,52.08,52.08,1,1,1.0,1.0,2015-10-13,No,,No,832831.0,2019-06-30,352.0,1.0,352.0,13.0,,take groundwater,73654978.0,6879.0,4160621.0,7.0,No,Poor Conditions,Complex,1,52.08,52.08,Jul,Jun,31498.0,7,1,73654978.0,25529,Too many meters in the consent.  The maximum is 100,,,,,,,,30277.0,M36/8288-M1,,0.0,858.1958319371277,53.474788665771484,52.50750683590661,0.0,102.67816564088228,100.82086566034296
90,CRC191331,Issued - Active,2018-10-30,2033-09-30,Christchurch City Council,EC366614,CRC194217,CRC180837,Parent,CRC180837,Christchurch - West Melton,,4.0,2019-10-07,1.0,2019-07-15,153,6798.329999999996,BX23/0428,Active,No,54.98,54.98,1,1,1.0,,,,,No,1059655.0,2019-06-30,303.0,1.0,303.0,62.0,,take groundwater,73654978.0,6879.0,4160621.0,7.0,No,Poor Conditions,Complex,1,54.98,54.98,Jul,Jun,33250.0,7,1,73654978.0,25529,Too many meters in the consent.  The maximum is 100,,,,,,,,30127.0,BX23/0428-M1,,0.0,0.0,52.28257497151692,0.0,101.01041666666666,95.09380678704424,0.0
91,CRC191331,Issued - Active,2018-10-30,2033-09-30,Christchurch City Council,EC366614,CRC194217,CRC180837,Parent,CRC180837,Christchurch - West Melton,,4.0,2019-10-07,1.0,2019-07-15,153,6798.329999999996,BX24/0191,Active,No,34.17,34.17,1,1,1.0,1.0,2018-07-14,No,,No,522374.0,2019-06-30,328.0,1.0,328.0,37.0,,take groundwater,73654978.0,6879.0,4160621.0,7.0,No,Poor Conditions,Complex,1,34.17,34.17,Jul,Jun,20666.0,7,1,73654978.0,25529,Too many meters in the consent.  The maximum is 100,,,,,,,,30134.0,BX24/0191-M1,,0.0,255.46358315202926,42.138053046332466,36.18583874788544,0.0,123.31885585698701,105.8994402923191
92,CRC191331,Issued - Active,2018-10-30,2033-09-30,Christchurch City Council,EC366614,CRC194217,CRC180837,Parent,CRC180837,Christchurch - West Melton,,4.0,2019-10-07,1.0,2019-07-15,153,6798.329999999996,BX24/0194,Active,No,28.33,28.33,1,1,1.0,1.0,2017-07-11,No,,No,3542.0,2019-06-30,247.0,1.0,247.0,118.0,Pending Data Cleaning Project,take groundwater,73654978.0,6879.0,4160621.0,7.0,No,Poor Conditions,Complex,1,28.33,28.33,Jul,Jun,17133.0,7,1,73654978.0,25529,Too many meters in the consent.  The maximum is 100,,,,,,,,30137.0,BX24/0194-M1,,0.0,13.101345028612348,39.7125244140625,35.06780388201537,212.67708333333331,140.17834244286092,123.78328232268045
93,CRC191331,Issued - Active,2018-10-30,2033-09-30,Christchurch City Council,EC366614,CRC194217,CRC180837,Parent,CRC180837,Christchurch - West Melton,,4.0,2019-10-07,1.0,2019-07-15,153,6798.329999999996,BX24/0348,Active,No,45.28,45.28,1,1,1.0,1.0,2019-08-21,No,,No,333617.0,2019-06-30,352.0,1.0,352.0,13.0,,take groundwater,73654978.0,6879.0,4160621.0,7.0,No,Poor Conditions,Complex,1,45.28,45.28,Jul,Jun,27384.0,7,1,73654978.0,25529,Too many meters in the consent.  The maximum is 100,,,,,,,,30140.0,BX24/0348-M1,,0.0,64.45366162988874,53.75897513495551,46.86455523852976,0.0,118.7256517998134,103.49945944904981
94,CRC191331,Issued - Active,2018-10-30,2033-09-30,Christchurch City Council,EC366614,CRC194217,CRC180837,Parent,CRC180837,Christchurch - West Melton,,4.0,2019-10-07,1.0,2019-07-15,153,6798.329999999996,BX24/0457,Active,No,46.3,46.3,1,1,1.0,1.0,2019-08-20,No,,No,809251.0,2019-06-30,352.0,1.0,352.0,13.0,,take groundwater,73654978.0,6879.0,4160621.0,7.0,No,Poor Conditions,Complex,1,46.3,46.3,Jul,Jun,28000.0,7,1,73654978.0,25529,Too many meters in the consent.  The maximum is 100,,,,,,,,30143.0,BX24/0457-M1,,0.0,799.5233020325502,87.13225894504123,58.21438108856398,0.0,188.19062407136335,125.73300451093733
95,CRC191331,Issued - Active,2018-10-30,2033-09-30,Christchurch City Council,EC366614,CRC194217,CRC180837,Parent,CRC180837,Christchurch - West Melton,,4.0,2019-10-07,1.0,2019-07-15,153,6798.329999999996,BX24/0965,Active,No,46.3,46.3,1,1,1.0,1.0,2016-04-26,No,,No,1182033.0,2019-06-30,354.0,1.0,354.0,11.0,,take groundwater,73654978.0,6879.0,4160621.0,7.0,No,Poor Conditions,Complex,1,46.3,46.3,Jul,Jun,28000.0,7,1,73654978.0,25529,Too many meters in the consent.  The maximum is 100,,,,,,,,30150.0,BX24/0965-M1,,193.0,5404.31853550858,67.15599060058594,57.07689398062439,0.0,145.04533607038,123.27622889983671
96,CRC191331,Issued - Active,2018-10-30,2033-09-30,Christchurch City Council,EC366614,CRC194217,CRC180837,Parent,CRC180837,Christchurch - West Melton,,4.0,2019-10-07,1.0,2019-07-15,153,6798.329999999996,BX24/1311,Active,No,44.64,44.64,1,1,1.0,1.0,2018-05-16,No,,No,391525.0,2019-06-30,247.0,1.0,247.0,118.0,,take groundwater,73654978.0,6879.0,4160621.0,7.0,No,Poor Conditions,Complex,1,44.64,44.64,Jul,Jun,26998.0,7,1,73654978.0,25529,Too many meters in the consent.  The maximum is 100,,,,,,,,30153.0,BX24/1311-M1,,0.0,1284.7547198372417,55.07208718193902,51.7606387701079,212.76041666666669,123.36937092728274,115.9512517251521
97,CRC191331,Issued - Active,2018-10-30,2033-09-30,Christchurch City Council,EC366614,CRC194217,CRC180837,Parent,CRC180837,Christchurch - West Melton,,4.0,2019-10-07,1.0,2019-07-15,153,6798.329999999996,BX24/1328,Active,No,38.03,38.03,1,1,1.0,,2018-11-13,No,,No,,,,1.0,,365.0,,take groundwater,73654978.0,6879.0,4160621.0,7.0,No,Poor Conditions,Complex,1,38.03,38.03,Jul,Jun,23000.0,7,1,73654978.0,25529,Too many meters in the consent.  The maximum is 100,,,,,,,,30156.0,BX24/1328-M1,No data for BX24/0533.,,,,,,,
98,CRC191331,Issued - Active,2018-10-30,2033-09-30,Christchurch City Council,EC366614,CRC194217,CRC180837,Parent,CRC180837,Christchurch - West Melton,,4.0,2019-10-07,1.0,2019-07-15,153,6798.329999999996,M35/1546,Active,No,9.05,9.05,1,1,1.0,1.0,2017-05-23,No,,No,21261.0,2019-06-30,352.0,1.0,352.0,13.0,,take groundwater,73654978.0,6879.0,4160621.0,7.0,No,Poor Conditions,Complex,1,9.05,9.05,Jul,Jun,5473.0,7,1,73654978.0,25529,Too many meters in the consent.  The maximum is 100,,,,,,,,30163.0,M35/1546-M1,,0.0,87.74293574743801,33.987155490451386,10.753365223831565,0.0,375.54867945250146,118.82171518045928
99,CRC191331,Issued - Active,2018-10-30,2033-09-30,Christchurch City Council,EC366614,CRC194217,CRC180837,Parent,CRC180837,Christchurch - West Melton,,4.0,2019-10-07,1.0,2019-07-15,153,6798.329999999996,M35/18384,Active,No,47.92,47.92,1,1,1.0,1.0,2018-02-16,No,,No,532433.0,2019-06-30,352.0,1.0,352.0,13.0,Pending Data Cleaning Project,take groundwater,73654978.0,6879.0,4160621.0,7.0,No,Poor Conditions,Complex,1,47.92,47.92,Jul,Jun,28980.0,7,1,73654978.0,25529,Too many meters in the consent.  The maximum is 100,,,,,,,,30166.0,M35/18384-M1,,0.0,347.46193427814376,71.53262244330512,51.21098575344388,0.0,149.27508857117093,106.86766643039208
100,CRC191331,Issued - Active,2018-10-30,2033-09-30,Christchurch City Council,EC366614,CRC194217,CRC180837,Parent,CRC180837,Christchurch - West Melton,,4.0,2019-10-07,1.0,2019-07-15,153,6798.329999999996,M35/1859,Active,No,50.15,50.15,1,1,1.0,1.0,2018-09-28,No,,No,247985.0,2019-06-30,352.0,1.0,352.0,13.0,,take groundwater,73654978.0,6879.0,4160621.0,7.0,No,Poor Conditions,Complex,1,50.15,50.15,Jul,Jun,30331.0,7,1,73654978.0,25529,Too many meters in the consent.  The maximum is 100,,,,,,,,30169.0,M35/1859-M1,,0.0,232.25508291429944,173.88663397894965,60.68483447657388,0.0,346.7330687516444,121.00664900612938
101,CRC191331,Issued - Active,2018-10-30,2033-09-30,Christchurch City Council,EC366614,CRC194217,CRC180837,Parent,CRC180837,Christchurch - West Melton,,4.0,2019-10-07,1.0,2019-07-15,153,6798.329999999996,M35/1865,Active,No,43.4,43.4,1,1,1.0,1.0,,,,No,403161.0,2019-06-30,352.0,1.0,352.0,13.0,,take groundwater,73654978.0,6879.0,4160621.0,7.0,No,Poor Conditions,Complex,1,43.4,43.4,Jul,Jun,26248.0,7,1,73654978.0,25529,Too many meters in the consent.  The maximum is 100,,,,,,,,30172.0,M35/1865-M1,,75.0,1681.7757898786333,139.41574944390192,60.97751310267722,0.0,321.2344457232763,140.50118226423322
102,CRC191331,Issued - Active,2018-10-30,2033-09-30,Christchurch City Council,EC366614,CRC194217,CRC180837,Parent,CRC180837,Christchurch - West Melton,,4.0,2019-10-07,1.0,2019-07-15,153,6798.329999999996,M35/1945,Active,No,63.0,63.0,1,1,1.0,1.0,2017-07-09,No,,No,13852.0,2019-06-30,352.0,1.0,352.0,13.0,,take groundwater,73654978.0,6879.0,4160621.0,7.0,No,Poor Conditions,Complex,1,63.0,63.0,Jul,Jun,38101.0,7,1,73654978.0,25529,Too many meters in the consent.  The maximum is 100,,,,,,,,30179.0,M35/1945-M1,,0.0,0.6036883539623684,69.69371583726671,63.18895551893446,0.0,110.62494577343922,100.29992939513409
103,CRC191331,Issued - Active,2018-10-30,2033-09-30,Christchurch City Council,EC366614,CRC194217,CRC180837,Parent,CRC180837,Christchurch - West Melton,,4.0,2019-10-07,1.0,2019-07-15,153,6798.329999999996,M35/2159,Active,No,12.6,12.6,1,1,1.0,1.0,2017-05-14,No,,No,,,,,,365.0,,take groundwater,73654978.0,6879.0,4160621.0,7.0,No,Poor Conditions,Complex,1,12.6,12.6,Jul,Jun,7620.0,7,1,73654978.0,25529,Too many meters in the consent.  The maximum is 100,,,,,,,,30182.0,M35/2159-M1,No data for M35/1976.,,,,,,,
104,CRC191331,Issued - Active,2018-10-30,2033-09-30,Christchurch City Council,EC366614,CRC194217,CRC180837,Parent,CRC180837,Christchurch - West Melton,,4.0,2019-10-07,1.0,2019-07-15,153,6798.329999999996,M35/2260,Active,No,63.0,63.0,1,1,1.0,1.0,,,,No,40993.0,2019-06-30,321.0,1.0,321.0,44.0,,take groundwater,73654978.0,6879.0,4160621.0,7.0,No,Poor Conditions,Complex,1,63.0,63.0,Jul,Jun,38102.0,7,1,73654978.0,25529,Too many meters in the consent.  The maximum is 100,,,,,,,,30185.0,M35/2260-M1,,0.0,0.0,56.296276516384545,0.0,0.0,89.35916907362626,0.0
105,CRC191331,Issued - Active,2018-10-30,2033-09-30,Christchurch City Council,EC366614,CRC194217,CRC180837,Parent,CRC180837,Christchurch - West Melton,,4.0,2019-10-07,1.0,2019-07-15,153,6798.329999999996,M35/2272,Active,Yes,50.15,50.15,1,1,,1.0,,,,No,893999.0,2019-06-30,352.0,1.0,352.0,13.0,,take groundwater,73654978.0,6879.0,4160621.0,7.0,No,Poor Conditions,Complex,1,50.15,50.15,Jul,Jun,30331.0,7,1,73654978.0,25529,Too many meters in the consent.  The maximum is 100,,,,,,,,30188.0,M35/2272-M1,,25.0,2090.919166975816,168.4191131591797,70.13703100933037,0.0,335.83073411601134,139.85449852309145
106,CRC191331,Issued - Active,2018-10-30,2033-09-30,Christchurch City Council,EC366614,CRC194217,CRC180837,Parent,CRC180837,Christchurch - West Melton,,4.0,2019-10-07,1.0,2019-07-15,153,6798.329999999996,M35/2494,Active,No,63.0,63.0,1,1,1.0,1.0,,,,No,0.0,2019-06-30,352.0,1.0,352.0,13.0,,take groundwater,73654978.0,6879.0,4160621.0,7.0,No,Poor Conditions,Complex,1,63.0,63.0,Jul,Jun,38101.0,7,1,73654978.0,25529,Too many meters in the consent.  The maximum is 100,,,,,,,,30195.0,M35/2494-M1,,0.0,0.0,0.0,0.0,0.0,0.0,0.0
107,CRC191331,Issued - Active,2018-10-30,2033-09-30,Christchurch City Council,EC366614,CRC194217,CRC180837,Parent,CRC180837,Christchurch - West Melton,,4.0,2019-10-07,1.0,2019-07-15,153,6798.329999999996,M35/2556,Active,No,30.02,30.02,1,1,1.0,1.0,2017-06-28,No,,No,29968.0,2019-06-30,352.0,1.0,352.0,13.0,,take groundwater,73654978.0,6879.0,4160621.0,7.0,No,Poor Conditions,Complex,1,30.02,30.02,Jul,Jun,18156.0,7,1,73654978.0,25529,Too many meters in the consent.  The maximum is 100,,,,,,,,30198.0,M35/2556-M1,,0.0,0.0,26.597354676988388,0.0,0.0,88.59878306791602,0.0
108,CRC191331,Issued - Active,2018-10-30,2033-09-30,Christchurch City Council,EC366614,CRC194217,CRC180837,Parent,CRC180837,Christchurch - West Melton,,4.0,2019-10-07,1.0,2019-07-15,153,6798.329999999996,M35/2787,Active,Yes,35.01,35.01,1,1,,1.0,,,,No,791584.0,2019-06-30,353.0,1.0,353.0,12.0,,take groundwater,73654978.0,6879.0,4160621.0,7.0,No,Poor Conditions,Complex,1,35.01,35.01,Jul,Jun,21174.0,7,1,73654978.0,25529,Too many meters in the consent.  The maximum is 100,,,,,,,,30201.0,M35/2787-M1,,5.0,862.7746851468087,39.93194686041938,35.503481360272076,0.0,114.05868854732756,101.40954401677259
109,CRC191331,Issued - Active,2018-10-30,2033-09-30,Christchurch City Council,EC366614,CRC194217,CRC180837,Parent,CRC180837,Christchurch - West Melton,,4.0,2019-10-07,1.0,2019-07-15,153,6798.329999999996,M35/2805,Active,Yes,61.73,61.73,1,1,,1.0,,,,No,690325.0,2019-06-30,352.0,1.0,352.0,13.0,,take groundwater,73654978.0,6879.0,4160621.0,7.0,No,Poor Conditions,Complex,1,61.73,61.73,Jul,Jun,37333.0,7,1,73654978.0,25529,Too many meters in the consent.  The maximum is 100,,,,,,,,30204.0,M35/2805-M1,,0.0,0.0,56.29432678222656,0.0,0.0,91.19443833181042,0.0
110,CRC191331,Issued - Active,2018-10-30,2033-09-30,Christchurch City Council,EC366614,CRC194217,CRC180837,Parent,CRC180837,Christchurch - West Melton,,4.0,2019-10-07,1.0,2019-07-15,153,6798.329999999996,M35/3547,Active,No,43.4,43.4,1,1,1.0,1.0,,,,No,1069483.0,2019-06-30,352.0,1.0,352.0,13.0,,take groundwater,73654978.0,6879.0,4160621.0,7.0,No,Poor Conditions,Complex,1,43.4,43.4,Jul,Jun,26248.0,7,1,73654978.0,25529,Too many meters in the consent.  The maximum is 100,,,,,,,,30208.0,M35/3547-M1,,131.0,4567.563676534891,144.19672012329102,55.14969192107253,0.0,332.2505071965231,127.07302285961413
111,CRC191331,Issued - Active,2018-10-30,2033-09-30,Christchurch City Council,EC366614,CRC194217,CRC180837,Parent,CRC180837,Christchurch - West Melton,,4.0,2019-10-07,1.0,2019-07-15,153,6798.329999999996,M35/4133,Active,Yes,9.05,9.05,1,1,,1.0,,,,No,28971.0,2019-06-30,352.0,1.0,352.0,13.0,,take groundwater,73654978.0,6879.0,4160621.0,7.0,No,Poor Conditions,Complex,1,9.05,9.05,Jul,Jun,5473.0,7,1,73654978.0,25529,Too many meters in the consent.  The maximum is 100,,,,,,,,30211.0,M35/4133-M1,,0.0,184.53209934473037,30.382259156968857,12.286577890458375,0.0,335.715570795236,135.76329160727485
112,CRC191331,Issued - Active,2018-10-30,2033-09-30,Christchurch City Council,EC366614,CRC194217,CRC180837,Parent,CRC180837,Christchurch - West Melton,,4.0,2019-10-07,1.0,2019-07-15,153,6798.329999999996,M35/5573,Active,Yes,34.72,34.72,1,1,,1.0,,,,No,51738.0,2019-06-30,352.0,1.0,352.0,13.0,,take groundwater,73654978.0,6879.0,4160621.0,7.0,No,Poor Conditions,Complex,1,34.72,34.72,Jul,Jun,20999.0,7,1,73654978.0,25529,Too many meters in the consent.  The maximum is 100,,,,,,,,30214.0,M35/5573-M1,,0.0,101.57522952927484,82.2427495320638,42.83430849772594,0.0,236.87427860617456,123.37070419851943
113,CRC191331,Issued - Active,2018-10-30,2033-09-30,Christchurch City Council,EC366614,CRC194217,CRC180837,Parent,CRC180837,Christchurch - West Melton,,4.0,2019-10-07,1.0,2019-07-15,153,6798.329999999996,M35/6040,Active,No,41.67,41.67,1,1,1.0,1.0,2017-10-26,No,,No,657822.0,2019-06-30,352.0,1.0,352.0,13.0,Pending Data Cleaning Project,take groundwater,73654978.0,6879.0,4160621.0,7.0,No,Poor Conditions,Complex,1,41.67,41.67,Jul,Jun,25200.0,7,1,73654978.0,25529,Too many meters in the consent.  The maximum is 100,,,,,,,,30217.0,M35/6040-M1,,0.0,0.0,29.14489852057563,0.0,0.0,69.9421610764954,0.0
114,CRC191331,Issued - Active,2018-10-30,2033-09-30,Christchurch City Council,EC366614,CRC194217,CRC180837,Parent,CRC180837,Christchurch - West Melton,,4.0,2019-10-07,1.0,2019-07-15,153,6798.329999999996,M35/7216,Active,No,65.0,65.0,1,1,1.0,1.0,2017-06-30,No,,No,328732.0,2019-06-30,353.0,1.0,353.0,12.0,,take groundwater,73654978.0,6879.0,4160621.0,7.0,No,Poor Conditions,Complex,1,65.0,65.0,Jul,Jun,39312.0,7,1,73654978.0,25529,Too many meters in the consent.  The maximum is 100,,,,,,,,30224.0,M35/7216-M1,,0.0,0.0,60.79601075914171,0.0,0.0,93.5323242448334,0.0
115,CRC191331,Issued - Active,2018-10-30,2033-09-30,Christchurch City Council,EC366614,CRC194217,CRC180837,Parent,CRC180837,Christchurch - West Melton,,4.0,2019-10-07,1.0,2019-07-15,153,6798.329999999996,M35/7600,Active,No,37.62,37.62,1,1,1.0,1.0,2015-09-22,No,,No,171813.0,2019-06-30,352.0,1.0,352.0,13.0,,take groundwater,73654978.0,6879.0,4160621.0,7.0,No,Poor Conditions,Complex,1,37.62,37.62,Jul,Jun,22750.0,7,1,73654978.0,25529,Too many meters in the consent.  The maximum is 100,,,,,,,,30227.0,M35/7600-M1,,0.0,22.937535196940104,48.71670616997613,40.99070577221846,0.0,129.49682660812368,108.95987711913469
116,CRC191331,Issued - Active,2018-10-30,2033-09-30,Christchurch City Council,EC366614,CRC194217,CRC180837,Parent,CRC180837,Christchurch - West Melton,,4.0,2019-10-07,1.0,2019-07-15,153,6798.329999999996,M35/7814,Active,Yes,75.0,75.0,1,1,,1.0,,,,No,140031.0,2019-06-30,352.0,1.0,352.0,13.0,,take groundwater,73654978.0,6879.0,4160621.0,7.0,No,Poor Conditions,Complex,1,75.0,75.0,Jul,Jun,45360.0,7,1,73654978.0,25529,Too many meters in the consent.  The maximum is 100,,,,,,,,30230.0,M35/7814-M1,,0.0,0.0,59.93192036946614,0.0,0.0,79.90922715928819,0.0
117,CRC191331,Issued - Active,2018-10-30,2033-09-30,Christchurch City Council,EC366614,CRC194217,CRC180837,Parent,CRC180837,Christchurch - West Melton,,4.0,2019-10-07,1.0,2019-07-15,153,6798.329999999996,M35/8452,Active,Yes,30.02,30.02,1,1,,1.0,,,,No,29968.0,2019-06-30,352.0,1.0,352.0,13.0,,take groundwater,73654978.0,6879.0,4160621.0,7.0,No,Poor Conditions,Complex,1,30.02,30.02,Jul,Jun,18156.0,7,1,73654978.0,25529,Too many meters in the consent.  The maximum is 100,,,,,,,,30233.0,M35/8452-M1,,0.0,0.0,26.597354676988388,0.0,0.0,88.59878306791602,0.0
118,CRC191331,Issued - Active,2018-10-30,2033-09-30,Christchurch City Council,EC366614,CRC194217,CRC180837,Parent,CRC180837,Christchurch - West Melton,,4.0,2019-10-07,1.0,2019-07-15,153,6798.329999999996,M35/9290,Active,No,81.02,81.02,1,1,1.0,1.0,,,,No,396074.0,2019-06-30,352.0,1.0,352.0,13.0,,take groundwater,73654978.0,6879.0,4160621.0,7.0,No,Poor Conditions,Complex,1,81.02,81.02,Jul,Jun,49000.0,7,1,73654978.0,25529,Too many meters in the consent.  The maximum is 100,,,,,,,,30240.0,M35/9290-M1,,0.0,377.612796119584,154.4486321343316,83.8533092721932,0.0,190.6302544240084,103.49704921277858
119,CRC191331,Issued - Active,2018-10-30,2033-09-30,Christchurch City Council,EC366614,CRC194217,CRC180837,Parent,CRC180837,Christchurch - West Melton,,4.0,2019-10-07,1.0,2019-07-15,153,6798.329999999996,M36/0967,Active,No,45.97,45.97,1,1,1.0,1.0,2015-10-30,No,,No,304816.0,2019-06-30,352.0,1.0,352.0,13.0,,take groundwater,73654978.0,6879.0,4160621.0,7.0,No,Poor Conditions,Complex,1,45.97,45.97,Jul,Jun,27800.0,7,1,73654978.0,25529,Too many meters in the consent.  The maximum is 100,,,,,,,,30243.0,M36/0967-M1,,0.0,0.0,23.471133973863388,0.0,0.0,51.05750266230887,0.0
120,CRC191331,Issued - Active,2018-10-30,2033-09-30,Christchurch City Council,EC366614,CRC194217,CRC180837,Parent,CRC180837,Christchurch - West Melton,,4.0,2019-10-07,1.0,2019-07-15,153,6798.329999999996,M36/1030,Active,No,21.88,21.88,1,1,1.0,1.0,2017-04-13,No,,No,0.0,2019-06-30,352.0,1.0,352.0,13.0,,take groundwater,73654978.0,6879.0,4160621.0,7.0,No,Poor Conditions,Complex,1,21.88,21.88,Jul,Jun,13230.0,7,1,73654978.0,25529,Too many meters in the consent.  The maximum is 100,,,,,,,,30246.0,M36/1030-M1,,0.0,0.0,0.0,0.0,0.0,0.0,0.0
121,CRC191331,Issued - Active,2018-10-30,2033-09-30,Christchurch City Council,EC366614,CRC194217,CRC180837,Parent,CRC180837,Christchurch - West Melton,,4.0,2019-10-07,1.0,2019-07-15,153,6798.329999999996,M36/1056,Active,Yes,21.88,21.88,1,1,,,,,,No,,,,,,365.0,,take groundwater,73654978.0,6879.0,4160621.0,7.0,No,Poor Conditions,Complex,1,21.88,21.88,Jul,Jun,13230.0,7,1,73654978.0,25529,Too many meters in the consent.  The maximum is 100,,,,,,,,30249.0,M36/1055-M1,No data for M36/1056.,,,,,,,
122,CRC191331,Issued - Active,2018-10-30,2033-09-30,Christchurch City Council,EC366614,CRC194217,CRC180837,Parent,CRC180837,Christchurch - West Melton,,4.0,2019-10-07,1.0,2019-07-15,153,6798.329999999996,M36/1363,Active,Yes,58.61,58.61,1,1,,1.0,,,,No,728618.0,2019-06-30,352.0,1.0,352.0,13.0,,take groundwater,73654978.0,6879.0,4160621.0,7.0,No,Poor Conditions,Complex,1,58.61,58.61,Jul,Jun,35447.0,7,1,73654978.0,25529,Too many meters in the consent.  The maximum is 100,,,,,,,,30256.0,M36/1363-M1,,0.0,675.9818587562773,84.49636459350586,68.06063959733456,0.0,144.16714655093986,116.12461968492502
123,CRC191331,Issued - Active,2018-10-30,2033-09-30,Christchurch City Council,EC366614,CRC194217,CRC180837,Parent,CRC180837,Christchurch - West Melton,,4.0,2019-10-07,1.0,2019-07-15,153,6798.329999999996,M36/20556,Active,No,46.88,46.88,1,1,1.0,1.0,2019-09-24,No,,No,550763.0,2019-06-30,247.0,1.0,247.0,118.0,,take groundwater,73654978.0,6879.0,4160621.0,7.0,No,Poor Conditions,Complex,1,46.88,46.88,Jul,Jun,28350.0,7,1,73654978.0,25529,Too many meters in the consent.  The maximum is 100,,,,,,,,30259.0,M36/20556-M1,,9.0,2435.9806895359357,101.56853569878471,63.84625795414979,212.76041666666669,216.6564328045749,136.19082328103624
124,CRC191331,Issued - Active,2018-10-30,2033-09-30,Christchurch City Council,EC366614,CRC194217,CRC180837,Parent,CRC180837,Christchurch - West Melton,,4.0,2019-10-07,1.0,2019-07-15,153,6798.329999999996,M36/20559,Inactive,No,46.88,46.88,1,1,,,,,2019-01-28 12:05:00,Yes,,,,,,365.0,,take groundwater,73654978.0,6879.0,4160621.0,7.0,No,Poor Conditions,Complex,1,46.88,46.88,Jul,Jun,28350.0,7,1,73654978.0,25529,Too many meters in the consent.  The maximum is 100,,,,,,,,30262.0,M36/20557-M1,No data for M36/20559.,,,,,,,
125,CRC191331,Issued - Active,2018-10-30,2033-09-30,Christchurch City Council,EC366614,CRC194217,CRC180837,Parent,CRC180837,Christchurch - West Melton,,4.0,2019-10-07,1.0,2019-07-15,153,6798.329999999996,M36/4052,Active,No,54.98,54.98,1,1,1.0,1.0,,,,No,100171.0,2019-06-30,350.0,1.0,350.0,15.0,,take groundwater,73654978.0,6879.0,4160621.0,7.0,No,Poor Conditions,Complex,1,54.98,54.98,Jul,Jun,33250.0,7,1,73654978.0,25529,Too many meters in the consent.  The maximum is 100,,,,,,,,30269.0,M36/4052-M1,,0.0,140.94723179459572,167.69512600368924,73.07351499283538,0.0,305.0111422402496,132.90926699315276
126,CRC191331,Issued - Active,2018-10-30,2033-09-30,Christchurch City Council,EC366614,CRC194217,CRC180837,Parent,CRC180837,Christchurch - West Melton,,4.0,2019-10-07,1.0,2019-07-15,153,6798.329999999996,M36/4333,Active,No,54.98,54.98,1,1,1.0,1.0,,,,No,102773.0,2019-06-30,351.0,1.0,351.0,14.0,,take groundwater,73654978.0,6879.0,4160621.0,7.0,No,Poor Conditions,Complex,1,54.98,54.98,Jul,Jun,33250.0,7,1,73654978.0,25529,Too many meters in the consent.  The maximum is 100,,,,,,,,30272.0,M36/4333-M1,,0.0,109.73624549600814,100.04179636637369,68.27747523834284,0.0,181.96034260890087,124.1860226233955
127,CRC191331,Issued - Active,2018-10-30,2033-09-30,Christchurch City Council,EC366614,CRC194217,CRC180837,Parent,CRC180837,Christchurch - West Melton,,4.0,2019-10-07,1.0,2019-07-15,153,6798.329999999996,M36/5838,Active,Yes,50.0,50.0,1,1,,1.0,,,,No,728803.0,2019-06-30,352.0,1.0,352.0,13.0,,take groundwater,73654978.0,6879.0,4160621.0,7.0,No,Poor Conditions,Complex,1,50.0,50.0,Jul,Jun,30240.0,7,1,73654978.0,25529,Too many meters in the consent.  The maximum is 100,,,,,,,,30275.0,M36/5838-M1,,0.0,459.3301044199202,92.50906202528212,62.36694310063763,0.0,185.01812405056424,124.73388620127525
128,CRC191331,Issued - Active,2018-10-30,2033-09-30,Christchurch City Council,EC366614,CRC194217,CRC180837,Parent,CRC180837,Christchurch - West Melton,,4.0,2019-10-07,1.0,2019-07-15,153,6798.329999999996,BX23/0227,Active,No,34.72,34.72,1,1,1.0,1.0,2016-05-04,No,,No,1.0,2019-06-30,354.0,1.0,354.0,11.0,,take groundwater,73654978.0,6879.0,4160621.0,7.0,No,Poor Conditions,Complex,1,34.72,34.72,Jul,Jun,20999.0,7,1,73654978.0,25529,Too many meters in the consent.  The maximum is 100,,,,,,,,30125.0,BX23/0227-M1,,0.0,0.0,0.08482870128419664,0.0,0.0,0.2443222963254512,0.0
129,CRC191331,Issued - Active,2018-10-30,2033-09-30,Christchurch City Council,EC366614,CRC194217,CRC180837,Parent,CRC180837,Christchurch - West Melton,,4.0,2019-10-07,1.0,2019-07-15,153,6798.329999999996,BX23/0430,Active,No,54.98,54.98,1,1,1.0,,,,2019-06-11 09:04:00,Yes,,,,,,365.0,,take groundwater,73654978.0,6879.0,4160621.0,7.0,No,Poor Conditions,Complex,1,54.98,54.98,Jul,Jun,33250.0,7,1,73654978.0,25529,Too many meters in the consent.  The maximum is 100,,,,,,,,30128.0,BX23/0428-M1,No data for BX23/0430.,,,,,,,
130,CRC191331,Issued - Active,2018-10-30,2033-09-30,Christchurch City Council,EC366614,CRC194217,CRC180837,Parent,CRC180837,Christchurch - West Melton,,4.0,2019-10-07,1.0,2019-07-15,153,6798.329999999996,BX24/0188,Active,No,34.17,34.17,1,1,1.0,1.0,2017-07-14,No,,No,424218.0,2019-06-30,337.0,1.0,337.0,28.0,,take groundwater,73654978.0,6879.0,4160621.0,7.0,No,Poor Conditions,Complex,1,34.17,34.17,Jul,Jun,20666.0,7,1,73654978.0,25529,Too many meters in the consent.  The maximum is 100,,,,,,,,30131.0,BX24/0188-M1,,0.0,118.95891253074011,39.69719780815972,36.668002990861964,0.0,116.17558621059328,107.31051504495746
131,CRC191331,Issued - Active,2018-10-30,2033-09-30,Christchurch City Council,EC366614,CRC194217,CRC180837,Parent,CRC180837,Christchurch - West Melton,,4.0,2019-10-07,1.0,2019-07-15,153,6798.329999999996,BX24/0195,Active,No,40.34,40.34,1,1,1.0,1.0,2018-07-06,No,,No,28613.0,2019-06-30,247.0,1.0,247.0,118.0,Pending Data Cleaning Project,take groundwater,73654978.0,6879.0,4160621.0,7.0,No,Poor Conditions,Complex,1,40.34,40.34,Jul,Jun,24398.0,7,1,73654978.0,25529,Too many meters in the consent.  The maximum is 100,,,,,,,,30138.0,BX24/0195-M1,,0.0,81.9005952334404,51.308723025851776,45.36486777383038,212.67708333333331,127.19068672744613,112.45629096140402
132,CRC191331,Issued - Active,2018-10-30,2033-09-30,Christchurch City Council,EC366614,CRC194217,CRC180837,Parent,CRC180837,Christchurch - West Melton,,4.0,2019-10-07,1.0,2019-07-15,153,6798.329999999996,BX24/0350,Active,No,34.72,34.72,1,1,1.0,1.0,2019-08-20,No,,No,808614.0,2019-06-30,352.0,1.0,352.0,13.0,,take groundwater,73654978.0,6879.0,4160621.0,7.0,No,Poor Conditions,Complex,1,34.72,34.72,Jul,Jun,20999.0,7,1,73654978.0,25529,Too many meters in the consent.  The maximum is 100,,,,,,,,30141.0,BX24/0350-M1,,50.0,3975.579240660535,87.13225894504123,36.60410898093937,0.0,250.95696700760723,105.42658116630004
133,CRC191331,Issued - Active,2018-10-30,2033-09-30,Christchurch City Council,EC366614,CRC194217,CRC180837,Parent,CRC180837,Christchurch - West Melton,,4.0,2019-10-07,1.0,2019-07-15,153,6798.329999999996,BX24/0532,Active,No,38.03,38.03,1,1,1.0,,,,2019-01-28 12:11:00,Yes,,,,,,365.0,,take groundwater,73654978.0,6879.0,4160621.0,7.0,No,Poor Conditions,Complex,1,38.03,38.03,Jul,Jun,23000.0,7,1,73654978.0,25529,Too many meters in the consent.  The maximum is 100,,,,,,,,30144.0,BX24/0457-M1,No data for BX24/0532.,,,,,,,
134,CRC191331,Issued - Active,2018-10-30,2033-09-30,Christchurch City Council,EC366614,CRC194217,CRC180837,Parent,CRC180837,Christchurch - West Melton,,4.0,2019-10-07,1.0,2019-07-15,153,6798.329999999996,BX24/0624,Active,No,49.6,49.6,1,1,1.0,1.0,2017-01-27,No,,No,609015.0,2019-06-30,354.0,1.0,354.0,11.0,,take groundwater,73654978.0,6879.0,4160621.0,7.0,No,Poor Conditions,Complex,1,49.6,49.6,Jul,Jun,29998.0,7,1,73654978.0,25529,Too many meters in the consent.  The maximum is 100,,,,,,,,30147.0,BX24/0624-M1,,0.0,2.3851296169228022,62.74065441555447,60.069738795682724,0.0,126.49325487006948,121.10834434613452
135,CRC191331,Issued - Active,2018-10-30,2033-09-30,Christchurch City Council,EC366614,CRC194217,CRC180837,Parent,CRC180837,Christchurch - West Melton,,4.0,2019-10-07,1.0,2019-07-15,153,6798.329999999996,BX24/1312,Active,No,38.03,38.03,1,1,1.0,,2018-05-16,No,,No,165581.0,2019-06-30,112.0,1.0,112.0,253.0,Pending Data Cleaning Project,take groundwater,73654978.0,6879.0,4160621.0,7.0,No,Poor Conditions,Complex,1,38.03,38.03,Jul,Jun,23000.0,7,1,73654978.0,25529,Too many meters in the consent.  The maximum is 100,,,,,,,,30154.0,BX24/1312-M1,,0.0,558.0031905115975,54.23636754353841,51.51894931870174,509.26041666666663,142.61469246263056,135.4692330231442
136,CRC191331,Issued - Active,2018-10-30,2033-09-30,Christchurch City Council,EC366614,CRC194217,CRC180837,Parent,CRC180837,Christchurch - West Melton,,4.0,2019-10-07,1.0,2019-07-15,153,6798.329999999996,M35/10325,Active,No,46.3,46.3,1,1,1.0,1.0,2014-05-22,Yes,,No,270862.0,2019-06-30,352.0,1.0,352.0,13.0,,take groundwater,73654978.0,6879.0,4160621.0,7.0,No,Poor Conditions,Complex,1,46.3,46.3,Jul,Jun,28000.0,7,1,73654978.0,25529,Too many meters in the consent.  The maximum is 100,,,,,,,,30157.0,M35/10325-M1,,29.0,641.4247874414921,135.2919896443685,121.14215297972555,0.0,292.2073210461523,261.6461187467075
137,CRC191331,Issued - Active,2018-10-30,2033-09-30,Christchurch City Council,EC366614,CRC194217,CRC180837,Parent,CRC180837,Christchurch - West Melton,,4.0,2019-10-07,1.0,2019-07-15,153,6798.329999999996,M35/1336,Active,No,81.02,81.02,1,1,1.0,1.0,2017-04-28,No,,No,19998.0,2019-06-30,352.0,1.0,352.0,13.0,,take groundwater,73654978.0,6879.0,4160621.0,7.0,No,Poor Conditions,Complex,1,81.02,81.02,Jul,Jun,49000.0,7,1,73654978.0,25529,Too many meters in the consent.  The maximum is 100,,,,,,,,30160.0,M35/1336-M1,,0.0,0.0,40.88308546278212,0.0,0.0,50.46048563661086,0.0
138,CRC191331,Issued - Active,2018-10-30,2033-09-30,Christchurch City Council,EC366614,CRC194217,CRC180837,Parent,CRC180837,Christchurch - West Melton,,4.0,2019-10-07,1.0,2019-07-15,153,6798.329999999996,M35/18398,Active,No,65.63,65.63,1,1,1.0,1.0,2018-02-16,No,,No,6183.0,2019-06-30,352.0,1.0,352.0,13.0,,take groundwater,73654978.0,6879.0,4160621.0,7.0,No,Poor Conditions,Complex,1,65.63,65.63,Jul,Jun,39690.0,7,1,73654978.0,25529,Too many meters in the consent.  The maximum is 100,,,,,,,,30167.0,M35/18398-M1,,0.0,0.0,13.070406913757324,0.0,0.0,19.915293179578434,0.0
139,CRC191331,Issued - Active,2018-10-30,2033-09-30,Christchurch City Council,EC366614,CRC194217,CRC180837,Parent,CRC180837,Christchurch - West Melton,,4.0,2019-10-07,1.0,2019-07-15,153,6798.329999999996,M35/1860,Active,Yes,50.15,50.15,1,1,,1.0,,,,No,200807.0,2019-06-30,352.0,1.0,352.0,13.0,,take groundwater,73654978.0,6879.0,4160621.0,7.0,No,Poor Conditions,Complex,1,50.15,50.15,Jul,Jun,30331.0,7,1,73654978.0,25529,Too many meters in the consent.  The maximum is 100,,,,,,,,30170.0,M35/1860-M1,,0.0,157.04329977817005,137.7605268690321,62.15776274716859,0.0,274.69696284951567,123.94369441110386
140,CRC191331,Issued - Active,2018-10-30,2033-09-30,Christchurch City Council,EC366614,CRC194217,CRC180837,Parent,CRC180837,Christchurch - West Melton,,4.0,2019-10-07,1.0,2019-07-15,153,6798.329999999996,M35/1866,Active,No,43.4,43.4,1,1,1.0,1.0,,,,No,1393460.0,2019-06-30,352.0,1.0,352.0,13.0,,take groundwater,73654978.0,6879.0,4160621.0,7.0,No,Poor Conditions,Complex,1,43.4,43.4,Jul,Jun,26248.0,7,1,73654978.0,25529,Too many meters in the consent.  The maximum is 100,,,,,,,,30173.0,M35/1866-M1,,287.0,6592.101251417133,225.4906506008572,57.83485693048635,0.0,519.563711061883,133.26003901033724
141,CRC191331,Issued - Active,2018-10-30,2033-09-30,Christchurch City Council,EC366614,CRC194217,CRC180837,Parent,CRC180837,Christchurch - West Melton,,4.0,2019-10-07,1.0,2019-07-15,153,6798.329999999996,M35/18733,Active,No,52.08,52.08,1,1,1.0,1.0,2019-08-21,No,,No,439394.0,2019-06-30,352.0,1.0,352.0,13.0,,take groundwater,73654978.0,6879.0,4160621.0,7.0,No,Poor Conditions,Complex,1,52.08,52.08,Jul,Jun,31498.0,7,1,73654978.0,25529,Too many meters in the consent.  The maximum is 100,,,,,,,,30176.0,M35/18733-M1,,0.0,270.4482845977942,81.90224541558159,61.72978979644279,0.0,157.26237598998,118.52878225123425
142,CRC191331,Issued - Active,2018-10-30,2033-09-30,Christchurch City Council,EC366614,CRC194217,CRC180837,Parent,CRC180837,Christchurch - West Melton,,4.0,2019-10-07,1.0,2019-07-15,153,6798.329999999996,M35/2241,Active,Yes,48.0,48.0,1,1,,1.0,,,,No,164501.0,2019-06-30,352.0,1.0,352.0,13.0,,take groundwater,73654978.0,6879.0,4160621.0,7.0,No,Poor Conditions,Complex,1,48.0,48.0,Jul,Jun,29030.0,7,1,73654978.0,25529,Too many meters in the consent.  The maximum is 100,,,,,,,,30183.0,M35/2241-M1,,0.0,541.702638951275,72.69468519422743,65.53798150327248,0.0,151.44726082130714,136.537461465151
143,CRC191331,Issued - Active,2018-10-30,2033-09-30,Christchurch City Council,EC366614,CRC194217,CRC180837,Parent,CRC180837,Christchurch - West Melton,,4.0,2019-10-07,1.0,2019-07-15,153,6798.329999999996,M35/2266,Active,No,75.23,75.23,1,1,1.0,1.0,,,,No,0.0,2019-06-30,353.0,1.0,353.0,12.0,,take groundwater,73654978.0,6879.0,4160621.0,7.0,No,Poor Conditions,Complex,1,75.23,75.23,Jul,Jun,45499.0,7,1,73654978.0,25529,Too many meters in the consent.  The maximum is 100,,,,,,,,30186.0,M35/2266-M1,,0.0,0.0,0.0,0.0,0.0,0.0,0.0
144,CRC191331,Issued - Active,2018-10-30,2033-09-30,Christchurch City Council,EC366614,CRC194217,CRC180837,Parent,CRC180837,Christchurch - West Melton,,4.0,2019-10-07,1.0,2019-07-15,153,6798.329999999996,M35/2273,Active,Yes,50.15,50.15,1,1,,1.0,,,,No,595657.0,2019-06-30,352.0,1.0,352.0,13.0,,take groundwater,73654978.0,6879.0,4160621.0,7.0,No,Poor Conditions,Complex,1,50.15,50.15,Jul,Jun,30331.0,7,1,73654978.0,25529,Too many meters in the consent.  The maximum is 100,,,,,,,,30189.0,M35/2273-M1,,4.0,1380.1247545908557,140.98256852891708,73.11778109391014,0.0,281.12177174260637,145.79816768476599
145,CRC191331,Issued - Active,2018-10-30,2033-09-30,Christchurch City Council,EC366614,CRC194217,CRC180837,Parent,CRC180837,Christchurch - West Melton,,4.0,2019-10-07,1.0,2019-07-15,153,6798.329999999996,M35/2325,Active,No,63.0,63.0,1,1,1.0,1.0,2017-05-17,No,,No,358852.0,2019-06-24,344.0,1.0,344.0,21.0,,take groundwater,73654978.0,6879.0,4160621.0,7.0,No,Poor Conditions,Complex,1,63.0,63.0,Jul,Jun,38101.0,7,1,73654978.0,25529,Too many meters in the consent.  The maximum is 100,,,,,,,,30192.0,M35/2325-M1,,0.0,14.888449253241221,76.97043948703342,66.79654102676795,0.0,122.17530077306891,106.02625559804437
146,CRC191331,Issued - Active,2018-10-30,2033-09-30,Christchurch City Council,EC366614,CRC194217,CRC180837,Parent,CRC180837,Christchurch - West Melton,,4.0,2019-10-07,1.0,2019-07-15,153,6798.329999999996,M35/2587,Active,No,57.87,57.87,1,1,1.0,1.0,2017-11-01,No,,No,356343.0,2019-06-30,353.0,1.0,353.0,12.0,,take groundwater,73654978.0,6879.0,4160621.0,7.0,No,Poor Conditions,Complex,1,57.87,57.87,Jul,Jun,35000.0,7,1,73654978.0,25529,Too many meters in the consent.  The maximum is 100,,,,,,,,30199.0,M35/2587-M1,,0.0,23.724441538121965,76.2284935845269,62.58003368478137,0.0,131.72367994561412,108.1389902968401
147,CRC191331,Issued - Active,2018-10-30,2033-09-30,Christchurch City Council,EC366614,CRC194217,CRC180837,Parent,CRC180837,Christchurch - West Melton,,4.0,2019-10-07,1.0,2019-07-15,153,6798.329999999996,M35/2789,Active,No,41.9,41.9,1,1,1.0,1.0,2018-02-16,No,,No,128953.0,2019-06-30,353.0,1.0,353.0,12.0,,take groundwater,73654978.0,6879.0,4160621.0,7.0,No,Poor Conditions,Complex,1,41.9,41.9,Jul,Jun,25340.0,7,1,73654978.0,25529,Too many meters in the consent.  The maximum is 100,,,,,,,,30202.0,M35/2789-M1,,0.0,198.6862025182777,69.06664106580946,53.886094904920924,0.0,164.83685218570278,128.6064317539879
148,CRC191331,Issued - Active,2018-10-30,2033-09-30,Christchurch City Council,EC366614,CRC194217,CRC180837,Parent,CRC180837,Christchurch - West Melton,,4.0,2019-10-07,1.0,2019-07-15,153,6798.329999999996,M35/3128,Active,No,55.44,55.44,1,1,1.0,1.0,2017-05-22,No,,No,71985.0,2019-06-30,352.0,1.0,352.0,13.0,,take groundwater,73654978.0,6879.0,4160621.0,7.0,No,Poor Conditions,Complex,1,55.44,55.44,Jul,Jun,33530.0,7,1,73654978.0,25529,Too many meters in the consent.  The maximum is 100,,,,,,,,30205.0,M35/3128-M1,,0.0,0.0,31.6555298699273,0.0,0.0,57.09871910160047,0.0
149,CRC191331,Issued - Active,2018-10-30,2033-09-30,Christchurch City Council,EC366614,CRC194217,CRC180837,Parent,CRC180837,Christchurch - West Melton,,4.0,2019-10-07,1.0,2019-07-15,153,6798.329999999996,M35/5135,Active,No,40.0,40.0,1,1,1.0,1.0,2017-06-09,No,,No,421.0,2019-06-30,352.0,1.0,352.0,13.0,,take groundwater,73654978.0,6879.0,4160621.0,7.0,No,Poor Conditions,Complex,1,40.0,40.0,Jul,Jun,24192.0,7,1,73654978.0,25529,Too many meters in the consent.  The maximum is 100,,,,,,,,30212.0,M35/5135-M1,,0.0,0.0,0.1186794704861111,0.0,0.0,0.29669867621527773,0.0
150,CRC191331,Issued - Active,2018-10-30,2033-09-30,Christchurch City Council,EC366614,CRC194217,CRC180837,Parent,CRC180837,Christchurch - West Melton,,4.0,2019-10-07,1.0,2019-07-15,153,6798.329999999996,M35/5760,Active,No,40.0,40.0,1,1,1.0,,,,,No,,,,,,365.0,,take groundwater,73654978.0,6879.0,4160621.0,7.0,No,Poor Conditions,Complex,1,40.0,40.0,Jul,Jun,24192.0,7,1,73654978.0,25529,Too many meters in the consent.  The maximum is 100,,,,,,,,30215.0,M35/5573-M1,No data for M35/5760 .,,,,,,,
151,CRC191331,Issued - Active,2018-10-30,2033-09-30,Christchurch City Council,EC366614,CRC194217,CRC180837,Parent,CRC180837,Christchurch - West Melton,,4.0,2019-10-07,1.0,2019-07-15,153,6798.329999999996,M35/6203,Active,Yes,30.0,30.0,1,1,,1.0,,,,No,309493.0,2019-06-22,196.0,1.0,196.0,169.0,,take groundwater,73654978.0,6879.0,4160621.0,7.0,No,Poor Conditions,Complex,1,30.0,30.0,Jul,Jun,18144.0,7,1,73654978.0,25529,Too many meters in the consent.  The maximum is 100,,,,,,,,30218.0,M35/6203-M1,,80.0,1684.8159919834136,60.50520579020182,48.405168991158234,0.0,201.68401930067273,161.35056330386078
152,CRC191331,Issued - Active,2018-10-30,2033-09-30,Christchurch City Council,EC366614,CRC194217,CRC180837,Parent,CRC180837,Christchurch - West Melton,,4.0,2019-10-07,1.0,2019-07-15,153,6798.329999999996,M35/6945,Active,No,48.75,48.75,1,1,1.0,1.0,,,,No,250967.0,2019-06-30,352.0,1.0,352.0,13.0,,take groundwater,73654978.0,6879.0,4160621.0,7.0,No,Poor Conditions,Complex,1,48.75,48.75,Jul,Jun,29484.0,7,1,73654978.0,25529,Too many meters in the consent.  The maximum is 100,,,,,,,,30221.0,M35/6945-M1,,0.0,0.0,32.86156230502658,0.0,0.0,67.40833293338785,0.0
153,CRC191331,Issued - Active,2018-10-30,2033-09-30,Christchurch City Council,EC366614,CRC194217,CRC180837,Parent,CRC180837,Christchurch - West Melton,,4.0,2019-10-07,1.0,2019-07-15,153,6798.329999999996,M35/7746,Active,No,55.44,55.44,1,1,1.0,1.0,2017-05-22,No,,No,110985.0,2019-06-30,352.0,1.0,352.0,13.0,,take groundwater,73654978.0,6879.0,4160621.0,7.0,No,Poor Conditions,Complex,1,55.44,55.44,Jul,Jun,33530.0,7,1,73654978.0,25529,Too many meters in the consent.  The maximum is 100,,,,,,,,30228.0,M35/7746-M1,,0.0,12.191763180361853,67.19326655069987,59.767825897075,0.0,121.19997574080064,107.8063237681728
154,CRC191331,Issued - Active,2018-10-30,2033-09-30,Christchurch City Council,EC366614,CRC194217,CRC180837,Parent,CRC180837,Christchurch - West Melton,,4.0,2019-10-07,1.0,2019-07-15,153,6798.329999999996,M35/8087,Active,No,62.75,62.75,1,1,1.0,1.0,2018-10-13,No,,No,649382.0,2019-06-29,351.0,1.0,351.0,14.0,,take groundwater,73654978.0,6879.0,4160621.0,7.0,No,Poor Conditions,Complex,1,62.75,62.75,Jul,Jun,37951.0,7,1,73654978.0,25529,Too many meters in the consent.  The maximum is 100,,,,,,,,30231.0,M35/8087-M1,,0.0,0.0,61.22345182630751,0.0,0.0,97.56725390646615,0.0
155,CRC191331,Issued - Active,2018-10-30,2033-09-30,Christchurch City Council,EC366614,CRC194217,CRC180837,Parent,CRC180837,Christchurch - West Melton,,4.0,2019-10-07,1.0,2019-07-15,153,6798.329999999996,M35/8660,Active,No,35.0,35.0,1,1,1.0,1.0,2017-06-26,No,,No,205260.0,2019-06-30,304.0,1.0,304.0,61.0,,take groundwater,73654978.0,6879.0,4160621.0,7.0,No,Poor Conditions,Complex,1,35.0,35.0,Jul,Jun,21168.0,7,1,73654978.0,25529,Too many meters in the consent.  The maximum is 100,,,,,,,,30234.0,M35/8660-M1,,0.0,441.6434896870454,59.92598003811306,42.249819936811264,0.0,171.21708582318018,120.71377124803217
156,CRC191331,Issued - Active,2018-10-30,2033-09-30,Christchurch City Council,EC366614,CRC194217,CRC180837,Parent,CRC180837,Christchurch - West Melton,,4.0,2019-10-07,1.0,2019-07-15,153,6798.329999999996,M35/8898,Active,No,16.67,16.67,1,1,1.0,1.0,2017-04-12,No,,No,149763.0,2019-06-30,352.0,1.0,352.0,13.0,,take groundwater,73654978.0,6879.0,4160621.0,7.0,No,Poor Conditions,Complex,1,16.67,16.67,Jul,Jun,10080.0,7,1,73654978.0,25529,Too many meters in the consent.  The maximum is 100,,,,,,,,30237.0,M35/8898-M1,,19.0,1503.6307241137822,52.00431399875217,30.538510892777595,0.0,311.96349129425414,183.1944264713713
157,CRC191331,Issued - Active,2018-10-30,2033-09-30,Christchurch City Council,EC366614,CRC194217,CRC180837,Parent,CRC180837,Christchurch - West Melton,,4.0,2019-10-07,1.0,2019-07-15,153,6798.329999999996,M36/0981,Active,No,12.63,12.63,1,1,1.0,1.0,2015-10-23,No,,No,68117.0,2019-06-30,352.0,1.0,352.0,13.0,,take groundwater,73654978.0,6879.0,4160621.0,7.0,No,Poor Conditions,Complex,1,12.63,12.63,Jul,Jun,7637.0,7,1,73654978.0,25529,Too many meters in the consent.  The maximum is 100,,,,,,,,30244.0,M36/0981-M1,,0.0,0.0,8.79188643561469,0.0,0.0,69.61113567390888,0.0
158,CRC191331,Issued - Active,2018-10-30,2033-09-30,Christchurch City Council,EC366614,CRC194217,CRC180837,Parent,CRC180837,Christchurch - West Melton,,4.0,2019-10-07,1.0,2019-07-15,153,6798.329999999996,M36/1045,Active,No,34.72,34.72,1,1,1.0,1.0,2017-12-08,No,,No,1008928.0,2019-06-30,352.0,1.0,352.0,13.0,,take groundwater,73654978.0,6879.0,4160621.0,7.0,No,Poor Conditions,Complex,1,34.72,34.72,Jul,Jun,20999.0,7,1,73654978.0,25529,Too many meters in the consent.  The maximum is 100,,,,,,,,30247.0,M36/1045-M1,,187.0,4252.522587033378,93.95445505777995,51.72523851023334,0.0,270.60614935996534,148.97822151564904
159,CRC191331,Issued - Active,2018-10-30,2033-09-30,Christchurch City Council,EC366614,CRC194217,CRC180837,Parent,CRC180837,Christchurch - West Melton,,4.0,2019-10-07,1.0,2019-07-15,153,6798.329999999996,M36/1058,Active,No,59.0,59.0,1,1,1.0,1.0,2019-05-21,No,,No,527341.0,2019-06-30,340.0,1.0,340.0,25.0,,take groundwater,73654978.0,6879.0,4160621.0,7.0,No,Poor Conditions,Complex,1,59.0,59.0,Jul,Jun,35683.0,7,1,73654978.0,25529,Too many meters in the consent.  The maximum is 100,,,,,,,,30250.0,M36/1058-M1,,0.0,1.7963245177268983,66.81376139322917,64.02752431766544,0.0,113.24366337835453,108.52122765706007
160,CRC191331,Issued - Active,2018-10-30,2033-09-30,Christchurch City Council,EC366614,CRC194217,CRC180837,Parent,CRC180837,Christchurch - West Melton,,4.0,2019-10-07,1.0,2019-07-15,153,6798.329999999996,M36/1210,Active,Yes,25.85,25.85,1,1,,,,,,No,149165.0,2019-06-30,246.0,1.0,246.0,119.0,,take groundwater,73654978.0,6879.0,4160621.0,7.0,No,Poor Conditions,Complex,1,25.85,25.85,Jul,Jun,15633.0,7,1,73654978.0,25529,Too many meters in the consent.  The maximum is 100,,,,,,,,30253.0,M36/1210-M1,,0.0,4.659734980795118,50.07074991861979,32.6660739745563,212.76041666666669,193.69729175481544,126.36779100408626
161,CRC191331,Issued - Active,2018-10-30,2033-09-30,Christchurch City Council,EC366614,CRC194217,CRC180837,Parent,CRC180837,Christchurch - West Melton,,4.0,2019-10-07,1.0,2019-07-15,153,6798.329999999996,M36/1619,Active,Yes,25.85,25.85,1,1,,1.0,,,,No,163261.0,2019-06-30,350.0,1.0,350.0,15.0,,take groundwater,73654978.0,6879.0,4160621.0,7.0,No,Poor Conditions,Complex,1,25.85,25.85,Jul,Jun,15633.0,7,1,73654978.0,25529,Too many meters in the consent.  The maximum is 100,,,,,,,,30257.0,M36/1619-M1,,0.0,4.659734980795118,50.07074991861979,32.6660739745563,0.0,193.69729175481544,126.36779100408626
162,CRC191331,Issued - Active,2018-10-30,2033-09-30,Christchurch City Council,EC366614,CRC194217,CRC180837,Parent,CRC180837,Christchurch - West Melton,,4.0,2019-10-07,1.0,2019-07-15,153,6798.329999999996,M36/20557,Active,No,46.88,46.88,1,1,1.0,1.0,2015-02-21,No,,No,522872.0,2019-06-30,247.0,1.0,247.0,118.0,,take groundwater,73654978.0,6879.0,4160621.0,7.0,No,Poor Conditions,Complex,1,46.88,46.88,Jul,Jun,28350.0,7,1,73654978.0,25529,Too many meters in the consent.  The maximum is 100,,,,,,,,30260.0,M36/20557-M1,,2.0,2097.779532825682,99.84312693277994,64.08254168260953,212.76041666666669,212.975953354906,136.69484147314319
163,CRC191331,Issued - Active,2018-10-30,2033-09-30,Christchurch City Council,EC366614,CRC194217,CRC180837,Parent,CRC180837,Christchurch - West Melton,,4.0,2019-10-07,1.0,2019-07-15,153,6798.329999999996,M36/20670,Active,No,45.0,45.0,1,1,1.0,1.0,2018-02-16,No,,No,425094.0,2019-06-30,352.0,1.0,352.0,13.0,,take groundwater,73654978.0,6879.0,4160621.0,7.0,No,Poor Conditions,Complex,1,45.0,45.0,Jul,Jun,27216.0,7,1,73654978.0,25529,Too many meters in the consent.  The maximum is 100,,,,,,,,30263.0,M36/20670-M1,,0.0,0.0,43.71829350789388,0.0,0.0,97.1517633508753,0.0
164,CRC191331,Issued - Active,2018-10-30,2033-09-30,Christchurch City Council,EC366614,CRC194217,CRC180837,Parent,CRC180837,Christchurch - West Melton,,4.0,2019-10-07,1.0,2019-07-15,153,6798.329999999996,M36/2195,Active,No,23.15,23.15,1,1,1.0,1.0,2017-11-04,No,,No,251279.0,2019-06-30,250.0,1.0,250.0,115.0,,take groundwater,73654978.0,6879.0,4160621.0,7.0,No,Poor Conditions,Complex,1,23.15,23.15,Jul,Jun,14000.0,7,1,73654978.0,25529,Too many meters in the consent.  The maximum is 100,,,,,,,,30266.0,M36/2195-M1,,0.0,1.345828888548745,25.011116663614906,24.713301128811306,103.55208333333333,108.0393808363495,106.75292064281344
165,CRC191331,Issued - Active,2018-10-30,2033-09-30,Christchurch City Council,EC366614,CRC194217,CRC180837,Parent,CRC180837,Christchurch - West Melton,,4.0,2019-10-07,1.0,2019-07-15,153,6798.329999999996,M36/4565,Active,Yes,70.0,70.0,1,1,,1.0,,,,No,482816.0,2019-06-30,352.0,1.0,352.0,13.0,,take groundwater,73654978.0,6879.0,4160621.0,7.0,No,Poor Conditions,Complex,1,70.0,70.0,Jul,Jun,42336.0,7,1,73654978.0,25529,Too many meters in the consent.  The maximum is 100,,,,,,,,30273.0,M36/4565-M1,,0.0,1.0249556631512111,96.72256469726562,86.94500398435696,0.0,138.17509242466517,124.20714854908137
166,CRC191331,Issued - Active,2018-10-30,2033-09-30,Christchurch City Council,EC366614,CRC194217,CRC180837,Parent,CRC180837,Christchurch - West Melton,,4.0,2019-10-07,1.0,2019-07-15,153,6798.329999999996,M36/8019,Active,No,62.5,62.5,1,1,1.0,1.0,2015-10-30,No,,No,112637.0,2019-06-30,352.0,1.0,352.0,13.0,,take groundwater,73654978.0,6879.0,4160621.0,7.0,No,Poor Conditions,Complex,1,62.5,62.5,Jul,Jun,37800.0,7,1,73654978.0,25529,Too many meters in the consent.  The maximum is 100,,,,,,,,30276.0,M36/8019-M1,,0.0,137.72998351746136,68.69489457872179,67.23203061784739,0.0,109.91183132595485,107.57124898855581
167,CRC191331,Issued - Active,2018-10-30,2033-09-30,Christchurch City Council,EC366614,CRC194217,CRC180837,Parent,CRC180837,Christchurch - West Melton,,4.0,2019-10-07,1.0,2019-07-15,153,6798.329999999996,BX24/0187,Active,No,24.25,24.25,1,1,1.0,1.0,2017-07-14,No,,No,422142.0,2019-06-30,354.0,1.0,354.0,11.0,,take groundwater,73654978.0,6879.0,4160621.0,7.0,No,Poor Conditions,Complex,1,24.25,24.25,Jul,Jun,14666.0,7,1,73654978.0,25529,Too many meters in the consent.  The maximum is 100,,,,,,,,30130.0,BX24/0187-M1,,55.0,2868.6983593861264,36.16639667087131,27.318994662359273,0.0,149.13978008606725,112.6556480922032
168,CRC191331,Issued - Active,2018-10-30,2033-09-30,Christchurch City Council,EC366614,CRC194217,CRC180837,Parent,CRC180837,Christchurch - West Melton,,4.0,2019-10-07,1.0,2019-07-15,153,6798.329999999996,BX24/0190,Active,No,24.25,24.25,1,1,1.0,1.0,2017-07-14,No,,No,474488.0,2019-06-30,354.0,1.0,354.0,11.0,,take groundwater,73654978.0,6879.0,4160621.0,7.0,No,Poor Conditions,Complex,1,24.25,24.25,Jul,Jun,14666.0,7,1,73654978.0,25529,Too many meters in the consent.  The maximum is 100,,,,,,,,30133.0,BX24/0190-M1,,84.0,3294.2299743358294,36.18772082858615,27.31416384984368,0.0,149.2277147570563,112.63572721585022
169,CRC191331,Issued - Active,2018-10-30,2033-09-30,Christchurch City Council,EC366614,CRC194217,CRC180837,Parent,CRC180837,Christchurch - West Melton,,4.0,2019-10-07,1.0,2019-07-15,153,6798.329999999996,BX24/0193,Active,No,28.33,28.33,1,1,1.0,1.0,2017-07-06,No,,No,6058.0,2019-06-30,246.0,1.0,246.0,119.0,Pending Data Cleaning Project,take groundwater,73654978.0,6879.0,4160621.0,7.0,No,Poor Conditions,Complex,1,28.33,28.33,Jul,Jun,17133.0,7,1,73654978.0,25529,Too many meters in the consent.  The maximum is 100,,,,,,,,30136.0,BX24/0193-M1,,0.0,16.123069608476428,42.031332651774086,33.3050989838913,212.67708333333331,148.36333445737412,117.56123891242957
170,CRC191331,Issued - Active,2018-10-30,2033-09-30,Christchurch City Council,EC366614,CRC194217,CRC180837,Parent,CRC180837,Christchurch - West Melton,,4.0,2019-10-07,1.0,2019-07-15,153,6798.329999999996,BX24/0346,Active,No,5.21,5.21,1,1,1.0,1.0,2019-05-27,No,,No,0.0,2019-06-30,36.0,1.0,36.0,329.0,,take groundwater,73654978.0,6879.0,4160621.0,7.0,No,Poor Conditions,Complex,1,5.21,5.21,Jul,Jun,3150.0,7,1,73654978.0,25529,Too many meters in the consent.  The maximum is 100,,,,,,,,30139.0,BX24/0346-M1,,0.0,0.0,0.0,0.0,662.21875,0.0,0.0
171,CRC191331,Issued - Active,2018-10-30,2033-09-30,Christchurch City Council,EC366614,CRC194217,CRC180837,Parent,CRC180837,Christchurch - West Melton,,4.0,2019-10-07,1.0,2019-07-15,153,6798.329999999996,BX24/0534,Active,No,30.95,30.95,1,1,1.0,1.0,2016-05-04,No,,No,143731.0,2019-06-30,354.0,1.0,354.0,11.0,,take groundwater,73654978.0,6879.0,4160621.0,7.0,No,Poor Conditions,Complex,1,30.95,30.95,Jul,Jun,18718.0,7,1,73654978.0,25529,Too many meters in the consent.  The maximum is 100,,,,,,,,30146.0,BX24/0534-M1,,0.0,11.393434689707226,33.598976135253906,32.45192049365846,0.0,108.5588889668947,104.85273180503543
172,CRC191331,Issued - Active,2018-10-30,2033-09-30,Christchurch City Council,EC366614,CRC194217,CRC180837,Parent,CRC180837,Christchurch - West Melton,,4.0,2019-10-07,1.0,2019-07-15,153,6798.329999999996,BX24/0626,Active,No,79.37,79.37,1,1,1.0,1.0,2017-01-27,No,,No,1087977.0,2019-06-30,354.0,1.0,354.0,11.0,,take groundwater,73654978.0,6879.0,4160621.0,7.0,No,Poor Conditions,Complex,1,79.37,79.37,Jul,Jun,48000.0,7,1,73654978.0,25529,Too many meters in the consent.  The maximum is 100,,,,,,,,30149.0,BX24/0626-M1,,0.0,266.865397932397,95.01940409342448,91.58389476432569,0.0,119.71702670205933,115.38855331274497
173,CRC191331,Issued - Active,2018-10-30,2033-09-30,Christchurch City Council,EC366614,CRC194217,CRC180837,Parent,CRC180837,Christchurch - West Melton,,4.0,2019-10-07,1.0,2019-07-15,153,6798.329999999996,BX24/1210,Active,No,17.36,17.36,1,1,1.0,1.0,2016-10-21,No,,No,320832.0,2019-06-30,354.0,1.0,354.0,11.0,,take groundwater,73654978.0,6879.0,4160621.0,7.0,No,Poor Conditions,Complex,1,17.36,17.36,Jul,Jun,10499.0,7,1,73654978.0,25529,Too many meters in the consent.  The maximum is 100,,,,,,,,30152.0,BX24/1210-M1,,79.0,2677.986175369554,78.33333333333333,31.24855501115576,0.0,451.2288786482335,180.00319706886958
174,CRC191331,Issued - Active,2018-10-30,2033-09-30,Christchurch City Council,EC366614,CRC194217,CRC180837,Parent,CRC180837,Christchurch - West Melton,,4.0,2019-10-07,1.0,2019-07-15,153,6798.329999999996,BX24/1327,Active,No,41.34,41.34,1,1,1.0,,,,,No,177650.0,2019-06-30,247.0,1.0,247.0,118.0,,take groundwater,73654978.0,6879.0,4160621.0,7.0,No,Poor Conditions,Complex,1,41.34,41.34,Jul,Jun,25000.0,7,1,73654978.0,25529,Too many meters in the consent.  The maximum is 100,,,,,,,,30155.0,BX24/1327-M1,,0.0,196.10687071058484,232.08333333333331,49.17467251872711,212.76041666666669,561.4013868730849,118.9517961265774
175,CRC191331,Issued - Active,2018-10-30,2033-09-30,Christchurch City Council,EC366614,CRC194217,CRC180837,Parent,CRC180837,Christchurch - West Melton,,4.0,2019-10-07,1.0,2019-07-15,153,6798.329999999996,M35/10928,Active,Yes,41.9,41.9,1,1,,1.0,,,,No,104946.0,2019-06-30,351.0,1.0,351.0,14.0,,take groundwater,73654978.0,6879.0,4160621.0,7.0,No,Poor Conditions,Complex,1,41.9,41.9,Jul,Jun,25340.0,7,1,73654978.0,25529,Too many meters in the consent.  The maximum is 100,,,,,,,,30159.0,M35/10928-M1,,0.0,21.63536384675238,70.891908009847,54.85967300424295,0.0,169.19309787552982,130.9300071700309
176,CRC191331,Issued - Active,2018-10-30,2033-09-30,Christchurch City Council,EC366614,CRC194217,CRC180837,Parent,CRC180837,Christchurch - West Melton,,4.0,2019-10-07,1.0,2019-07-15,153,6798.329999999996,M35/1476,Active,No,46.3,46.3,1,1,1.0,1.0,2017-11-14,No,,No,246215.0,2019-06-30,353.0,1.0,353.0,12.0,,take groundwater,73654978.0,6879.0,4160621.0,7.0,No,Poor Conditions,Complex,1,46.3,46.3,Jul,Jun,28000.0,7,1,73654978.0,25529,Too many meters in the consent.  The maximum is 100,,,,,,,,30162.0,M35/1476-M1,,13.0,907.9130423476961,70.77924728393555,67.56948070595786,0.0,152.87094445774417,145.9384032526088
177,CRC191331,Issued - Active,2018-10-30,2033-09-30,Christchurch City Council,EC366614,CRC194217,CRC180837,Parent,CRC180837,Christchurch - West Melton,,4.0,2019-10-07,1.0,2019-07-15,153,6798.329999999996,M35/1606,Active,No,44.2,44.2,1,1,1.0,1.0,2017-12-04,No,,No,50439.0,2019-06-30,353.0,1.0,353.0,12.0,,take groundwater,73654978.0,6879.0,4160621.0,7.0,No,Poor Conditions,Complex,1,44.2,44.2,Jul,Jun,26732.0,7,1,73654978.0,25529,Too many meters in the consent.  The maximum is 100,,,,,,,,30165.0,M35/1606-M1,,0.0,0.0,22.70376099480523,0.0,0.0,51.3659751013693,0.0
178,CRC191331,Issued - Active,2018-10-30,2033-09-30,Christchurch City Council,EC366614,CRC194217,CRC180837,Parent,CRC180837,Christchurch - West Melton,,4.0,2019-10-07,1.0,2019-07-15,153,6798.329999999996,M35/18432,Active,No,61.73,61.73,1,1,1.0,1.0,2018-02-16,No,,No,690515.0,2019-06-30,352.0,1.0,352.0,13.0,,take groundwater,73654978.0,6879.0,4160621.0,7.0,No,Poor Conditions,Complex,1,61.73,61.73,Jul,Jun,37333.0,7,1,73654978.0,25529,Too many meters in the consent.  The maximum is 100,,,,,,,,30168.0,M35/18432-M1,,0.0,0.0,56.29432678222656,0.0,0.0,91.19443833181042,0.0
179,CRC191331,Issued - Active,2018-10-30,2033-09-30,Christchurch City Council,EC366614,CRC194217,CRC180837,Parent,CRC180837,Christchurch - West Melton,,4.0,2019-10-07,1.0,2019-07-15,153,6798.329999999996,M35/18732,Active,No,41.44,41.44,1,1,1.0,1.0,2019-08-21,No,,No,770499.0,2019-06-30,352.0,1.0,352.0,13.0,,take groundwater,73654978.0,6879.0,4160621.0,7.0,No,Poor Conditions,Complex,1,41.44,41.44,Jul,Jun,25060.0,7,1,73654978.0,25529,Too many meters in the consent.  The maximum is 100,,,,,,,,30175.0,M35/18732-M1,,63.0,1832.5209859877164,89.79451921251085,62.54341964045284,0.0,216.68561586030611,150.92524044510822
180,CRC191331,Issued - Active,2018-10-30,2033-09-30,Christchurch City Council,EC366614,CRC194217,CRC180837,Parent,CRC180837,Christchurch - West Melton,,4.0,2019-10-07,1.0,2019-07-15,153,6798.329999999996,M35/1944,Active,No,75.0,75.0,1,1,1.0,1.0,2015-06-12,No,,No,116102.0,2019-06-30,352.0,1.0,352.0,13.0,,take groundwater,73654978.0,6879.0,4160621.0,7.0,No,Poor Conditions,Complex,1,75.0,75.0,Jul,Jun,45360.0,7,1,73654978.0,25529,Too many meters in the consent.  The maximum is 100,,,,,,,,30178.0,M35/1944-M1,,0.0,0.0,74.78777567545573,0.0,0.0,99.71703423394098,0.0
181,CRC191331,Issued - Active,2018-10-30,2033-09-30,Christchurch City Council,EC366614,CRC194217,CRC180837,Parent,CRC180837,Christchurch - West Melton,,4.0,2019-10-07,1.0,2019-07-15,153,6798.329999999996,M35/2152,Active,No,48.0,48.0,1,1,1.0,1.0,2017-05-23,No,,No,298790.0,2019-06-30,352.0,1.0,352.0,13.0,,take groundwater,73654978.0,6879.0,4160621.0,7.0,No,Poor Conditions,Complex,1,48.0,48.0,Jul,Jun,29030.0,7,1,73654978.0,25529,Too many meters in the consent.  The maximum is 100,,,,,,,,30181.0,M35/2152-M1,,0.0,1047.7493603967296,66.17846171061198,61.362515641806,0.0,137.87179523044165,127.8385742537625
182,CRC191331,Issued - Active,2018-10-30,2033-09-30,Christchurch City Council,EC366614,CRC194217,CRC180837,Parent,CRC180837,Christchurch - West Melton,,4.0,2019-10-07,1.0,2019-07-15,153,6798.329999999996,M35/2243,Active,No,63.0,63.0,1,1,1.0,1.0,2017-10-18,No,,No,925052.0,2019-06-30,352.0,1.0,352.0,13.0,,take groundwater,73654978.0,6879.0,4160621.0,7.0,No,Poor Conditions,Complex,1,63.0,63.0,Jul,Jun,38101.0,7,1,73654978.0,25529,Too many meters in the consent.  The maximum is 100,,,,,,,,30184.0,M35/2243-M1,,2.0,2080.0405523656473,76.57977845933702,63.556612120250975,0.0,121.55520390370955,100.88351130198568
183,CRC191331,Issued - Active,2018-10-30,2033-09-30,Christchurch City Council,EC366614,CRC194217,CRC180837,Parent,CRC180837,Christchurch - West Melton,,4.0,2019-10-07,1.0,2019-07-15,153,6798.329999999996,M35/2275,Active,Yes,50.15,50.15,1,1,,1.0,,,,No,564745.0,2019-06-30,352.0,1.0,352.0,13.0,,take groundwater,73654978.0,6879.0,4160621.0,7.0,No,Poor Conditions,Complex,1,50.15,50.15,Jul,Jun,30331.0,7,1,73654978.0,25529,Too many meters in the consent.  The maximum is 100,,,,,,,,30191.0,M35/2275-M1,,3.0,1275.3838023776477,106.65104336208768,72.3470993098747,0.0,212.66409444085278,144.2614143766195
184,CRC191331,Issued - Active,2018-10-30,2033-09-30,Christchurch City Council,EC366614,CRC194217,CRC180837,Parent,CRC180837,Christchurch - West Melton,,4.0,2019-10-07,1.0,2019-07-15,153,6798.329999999996,M35/2467,Active,No,37.62,37.62,1,1,1.0,1.0,,,,No,7500.0,2019-06-30,299.0,1.0,299.0,66.0,,take groundwater,73654978.0,6879.0,4160621.0,7.0,No,Poor Conditions,Complex,1,37.62,37.62,Jul,Jun,22750.0,7,1,73654978.0,25529,Too many meters in the consent.  The maximum is 100,,,,,,,,30194.0,M35/2467-M1,,0.0,0.0,13.597961531745062,0.0,0.0,36.145564943500965,0.0
185,CRC191331,Issued - Active,2018-10-30,2033-09-30,Christchurch City Council,EC366614,CRC194217,CRC180837,Parent,CRC180837,Christchurch - West Melton,,4.0,2019-10-07,1.0,2019-07-15,153,6798.329999999996,M35/2555,Active,Yes,41.9,41.9,1,1,1.0,1.0,,,,No,29990.0,2019-06-30,353.0,1.0,353.0,12.0,,take groundwater,73654978.0,6879.0,4160621.0,7.0,No,Poor Conditions,Complex,1,41.9,41.9,Jul,Jun,25340.0,7,1,73654978.0,25529,Too many meters in the consent.  The maximum is 100,,,,,,,,30197.0,M35/2555-M1,,0.0,4.318933150900735,63.86248482598199,52.54583031686036,0.0,152.41643156558948,125.40770958677892
186,CRC191331,Issued - Active,2018-10-30,2033-09-30,Christchurch City Council,EC366614,CRC194217,CRC180837,Parent,CRC180837,Christchurch - West Melton,,4.0,2019-10-07,1.0,2019-07-15,153,6798.329999999996,M35/2609,Active,Yes,44.2,44.2,1,1,,1.0,,,,No,106585.0,2019-06-30,350.0,1.0,350.0,15.0,,take groundwater,73654978.0,6879.0,4160621.0,7.0,No,Poor Conditions,Complex,1,44.2,44.2,Jul,Jun,26732.0,7,1,73654978.0,25529,Too many meters in the consent.  The maximum is 100,,,,,,,,30200.0,M35/2609-M1,,0.0,0.0,27.656619813707138,0.0,0.0,62.57153804006139,0.0
187,CRC191331,Issued - Active,2018-10-30,2033-09-30,Christchurch City Council,EC366614,CRC194217,CRC180837,Parent,CRC180837,Christchurch - West Melton,,4.0,2019-10-07,1.0,2019-07-15,153,6798.329999999996,M35/3546,Active,No,43.4,43.4,1,1,1.0,1.0,,,,No,1227327.0,2019-06-30,352.0,1.0,352.0,13.0,,take groundwater,73654978.0,6879.0,4160621.0,7.0,No,Poor Conditions,Complex,1,43.4,43.4,Jul,Jun,26248.0,7,1,73654978.0,25529,Too many meters in the consent.  The maximum is 100,,,,,,,,30207.0,M35/3546-M1,,223.0,5626.6085849514275,119.86465785238478,55.60357605168292,0.0,276.1858475861401,128.1188388287625
188,CRC191331,Issued - Active,2018-10-30,2033-09-30,Christchurch City Council,EC366614,CRC194217,CRC180837,Parent,CRC180837,Christchurch - West Melton,,4.0,2019-10-07,1.0,2019-07-15,153,6798.329999999996,M35/3813,Active,Yes,57.87,57.87,1,1,,1.0,,,,No,258114.0,2019-06-30,353.0,1.0,353.0,12.0,,take groundwater,73654978.0,6879.0,4160621.0,7.0,No,Poor Conditions,Complex,1,57.87,57.87,Jul,Jun,35000.0,7,1,73654978.0,25529,Too many meters in the consent.  The maximum is 100,,,,,,,,30210.0,M35/3813-M1,,0.0,22.350921315087213,73.67259555392795,63.00797658563533,0.0,127.30705988237074,108.87848036225219
189,CRC191331,Issued - Active,2018-10-30,2033-09-30,Christchurch City Council,EC366614,CRC194217,CRC180837,Parent,CRC180837,Christchurch - West Melton,,4.0,2019-10-07,1.0,2019-07-15,153,6798.329999999996,M35/5251,Active,No,34.72,34.72,1,1,1.0,1.0,2017-05-14,No,,No,142367.0,2019-06-30,352.0,1.0,352.0,13.0,,take groundwater,73654978.0,6879.0,4160621.0,7.0,No,Poor Conditions,Complex,1,34.72,34.72,Jul,Jun,20999.0,7,1,73654978.0,25529,Too many meters in the consent.  The maximum is 100,,,,,,,,30213.0,M35/5251-M1,,0.0,201.7457034307056,85.57603306240506,39.19345862540024,0.0,246.47474960370124,112.88438544182098
190,CRC191331,Issued - Active,2018-10-30,2033-09-30,Christchurch City Council,EC366614,CRC194217,CRC180837,Parent,CRC180837,Christchurch - West Melton,,4.0,2019-10-07,1.0,2019-07-15,153,6798.329999999996,M35/6667,Active,No,65.0,65.0,1,1,1.0,1.0,2016-05-04,No,,No,506133.0,2019-06-30,352.0,1.0,352.0,13.0,,take groundwater,73654978.0,6879.0,4160621.0,7.0,No,Poor Conditions,Complex,1,65.0,65.0,Jul,Jun,39312.0,7,1,73654978.0,25529,Too many meters in the consent.  The maximum is 100,,,,,,,,30220.0,M35/6667-M1,,0.0,0.0,40.113726721869575,0.0,0.0,61.7134257259532,0.0
191,CRC191331,Issued - Active,2018-10-30,2033-09-30,Christchurch City Council,EC366614,CRC194217,CRC180837,Parent,CRC180837,Christchurch - West Melton,,4.0,2019-10-07,1.0,2019-07-15,153,6798.329999999996,M35/7215,Active,No,65.0,65.0,1,1,1.0,1.0,2017-12-08,No,,No,30603.0,2019-06-30,312.0,1.0,312.0,53.0,,take groundwater,73654978.0,6879.0,4160621.0,7.0,No,Poor Conditions,Complex,1,65.0,65.0,Jul,Jun,39312.0,7,1,73654978.0,25529,Too many meters in the consent.  The maximum is 100,,,,,,,,30223.0,M35/7215-M1,,0.0,0.0,45.71416219075521,0.0,0.0,70.32948029346956,0.0
192,CRC191331,Issued - Active,2018-10-30,2033-09-30,Christchurch City Council,EC366614,CRC194217,CRC180837,Parent,CRC180837,Christchurch - West Melton,,4.0,2019-10-07,1.0,2019-07-15,153,6798.329999999996,M35/7319,Active,No,60.0,60.0,1,1,1.0,1.0,2017-07-11,No,,No,1238790.0,2019-06-30,352.0,1.0,352.0,13.0,,take groundwater,73654978.0,6879.0,4160621.0,7.0,No,Poor Conditions,Complex,1,60.0,60.0,Jul,Jun,36288.0,7,1,73654978.0,25529,Too many meters in the consent.  The maximum is 100,,,,,,,,30226.0,M35/7319-M1,,11.0,4411.939564694431,125.92853546142578,68.7407811686353,0.0,209.88089243570963,114.56796861439216
193,CRC191331,Issued - Active,2018-10-30,2033-09-30,Christchurch City Council,EC366614,CRC194217,CRC180837,Parent,CRC180837,Christchurch - West Melton,,4.0,2019-10-07,1.0,2019-07-15,153,6798.329999999996,M35/7813,Active,No,75.0,75.0,1,1,1.0,1.0,2017-04-20,No,,No,121972.0,2019-06-30,352.0,1.0,352.0,13.0,,take groundwater,73654978.0,6879.0,4160621.0,7.0,No,Poor Conditions,Complex,1,75.0,75.0,Jul,Jun,45360.0,7,1,73654978.0,25529,Too many meters in the consent.  The maximum is 100,,,,,,,,30229.0,M35/7813-M1,,0.0,0.0,62.950170305040146,0.0,0.0,83.9335604067202,0.0
194,CRC191331,Issued - Active,2018-10-30,2033-09-30,Christchurch City Council,EC366614,CRC194217,CRC180837,Parent,CRC180837,Christchurch - West Melton,,4.0,2019-10-07,1.0,2019-07-15,153,6798.329999999996,M35/8897,Active,Yes,23.33,23.33,1,1,,1.0,,,,No,302277.0,2019-06-30,352.0,1.0,352.0,13.0,,take groundwater,73654978.0,6879.0,4160621.0,7.0,No,Poor Conditions,Complex,1,23.33,23.33,Jul,Jun,14110.0,7,1,73654978.0,25529,Too many meters in the consent.  The maximum is 100,,,,,,,,30236.0,M35/8897-M1,,66.0,2125.372714762555,59.94689517550998,35.58292265927571,0.0,256.95197246253747,152.52002854383073
195,CRC191331,Issued - Active,2018-10-30,2033-09-30,Christchurch City Council,EC366614,CRC194217,CRC180837,Parent,CRC180837,Christchurch - West Melton,,4.0,2019-10-07,1.0,2019-07-15,153,6798.329999999996,M35/9289,Active,No,81.02,81.02,1,1,1.0,1.0,2017-04-13,No,,No,636759.0,2019-06-30,352.0,1.0,352.0,13.0,,take groundwater,73654978.0,6879.0,4160621.0,7.0,No,Poor Conditions,Complex,1,81.02,81.02,Jul,Jun,49000.0,7,1,73654978.0,25529,Too many meters in the consent.  The maximum is 100,,,,,,,,30239.0,M35/9289-M1,,0.0,7.234369617833032,91.6228781806098,86.29828083160066,0.0,113.0867417682175,106.51478749888999
196,CRC191331,Issued - Active,2018-10-30,2033-09-30,Christchurch City Council,EC366614,CRC194217,CRC180837,Parent,CRC180837,Christchurch - West Melton,,4.0,2019-10-07,1.0,2019-07-15,153,6798.329999999996,M35/9440,Active,No,49.93,49.93,1,1,1.0,1.0,2019-02-25,No,,No,103124.0,2019-06-30,352.0,1.0,352.0,13.0,Pending Data Cleaning Project,take groundwater,73654978.0,6879.0,4160621.0,7.0,No,Poor Conditions,Complex,1,49.93,49.93,Jul,Jun,30198.0,7,1,73654978.0,25529,Too many meters in the consent.  The maximum is 100,,,,,,,,30242.0,M35/9440-M1,,0.0,148.85426652497716,2936.441650390625,60.50851908815861,0.0,5881.116864391398,121.18669955569518
197,CRC191331,Issued - Active,2018-10-30,2033-09-30,Christchurch City Council,EC366614,CRC194217,CRC180837,Parent,CRC180837,Christchurch - West Melton,,4.0,2019-10-07,1.0,2019-07-15,153,6798.329999999996,M36/0985,Active,No,58.61,58.61,1,1,1.0,1.0,2017-06-09,No,,No,61156.0,2019-06-30,352.0,1.0,352.0,13.0,,take groundwater,73654978.0,6879.0,4160621.0,7.0,No,Poor Conditions,Complex,1,58.61,58.61,Jul,Jun,35447.0,7,1,73654978.0,25529,Too many meters in the consent.  The maximum is 100,,,,,,,,30245.0,M36/0985-M1,,0.0,29.432942385805976,126.0258674621582,69.44597870929908,0.0,215.0245136702921,118.48827624859082
198,CRC191331,Issued - Active,2018-10-30,2033-09-30,Christchurch City Council,EC366614,CRC194217,CRC180837,Parent,CRC180837,Christchurch - West Melton,,4.0,2019-10-07,1.0,2019-07-15,153,6798.329999999996,M36/1197,Active,No,23.15,23.15,1,1,1.0,1.0,2017-04-07,No,,No,67212.0,2019-06-30,234.0,1.0,234.0,131.0,,take groundwater,73654978.0,6879.0,4160621.0,7.0,No,Poor Conditions,Complex,1,23.15,23.15,Jul,Jun,14000.0,7,1,73654978.0,25529,Too many meters in the consent.  The maximum is 100,,,,,,,,30252.0,M36/1197-M1,,0.0,1.2890398135450152,24.011612998114693,23.69307412041558,0.0,103.72187040222329,102.345892528793
199,CRC191331,Issued - Active,2018-10-30,2033-09-30,Christchurch City Council,EC366614,CRC194217,CRC180837,Parent,CRC180837,Christchurch - West Melton,,4.0,2019-10-07,1.0,2019-07-15,153,6798.329999999996,M36/1356,Active,Yes,58.61,58.61,1,1,,1.0,,,,No,84510.0,2019-06-30,352.0,1.0,352.0,13.0,,take groundwater,73654978.0,6879.0,4160621.0,7.0,No,Poor Conditions,Complex,1,58.61,58.61,Jul,Jun,35447.0,7,1,73654978.0,25529,Too many meters in the consent.  The maximum is 100,,,,,,,,30255.0,M36/1356-M1,,0.0,30.782910836935045,140.5012724134657,70.92146514244826,0.0,239.7223552524581,121.00574158411237
200,CRC191331,Issued - Active,2018-10-30,2033-09-30,Christchurch City Council,EC366614,CRC194217,CRC180837,Parent,CRC180837,Christchurch - West Melton,,4.0,2019-10-07,1.0,2019-07-15,153,6798.329999999996,M36/1915,Active,No,22.0,22.0,1,1,1.0,1.0,2017-04-28,No,,No,106689.0,2019-06-30,352.0,1.0,352.0,13.0,,take groundwater,73654978.0,6879.0,4160621.0,7.0,No,Poor Conditions,Complex,1,22.0,22.0,Jul,Jun,13305.0,7,1,73654978.0,25529,Too many meters in the consent.  The maximum is 100,,,,,,,,30258.0,M36/1915-M1,,0.0,0.0,18.127172258165146,0.0,0.0,82.3962375371143,0.0
201,CRC191331,Issued - Active,2018-10-30,2033-09-30,Christchurch City Council,EC366614,CRC194217,CRC180837,Parent,CRC180837,Christchurch - West Melton,,4.0,2019-10-07,1.0,2019-07-15,153,6798.329999999996,M36/20729,Active,No,22.0,22.0,1,1,1.0,1.0,2019-08-21,No,,No,155321.0,2019-06-30,352.0,1.0,352.0,13.0,,take groundwater,73654978.0,6879.0,4160621.0,7.0,No,Poor Conditions,Complex,1,22.0,22.0,Jul,Jun,13305.0,7,1,73654978.0,25529,Too many meters in the consent.  The maximum is 100,,,,,,,,30265.0,M36/20671-M1,No data for M36/20729 .,,,,,,,
202,CRC191331,Issued - Active,2018-10-30,2033-09-30,Christchurch City Council,EC366614,CRC194217,CRC180837,Parent,CRC180837,Christchurch - West Melton,,4.0,2019-10-07,1.0,2019-07-15,153,6798.329999999996,M36/3060,Active,No,54.98,54.98,1,1,1.0,1.0,,,,No,276328.0,2019-06-30,349.0,1.0,349.0,16.0,,take groundwater,73654978.0,6879.0,4160621.0,7.0,No,Poor Conditions,Complex,1,54.98,54.98,Jul,Jun,33250.0,7,1,73654978.0,25529,Too many meters in the consent.  The maximum is 100,,,,,,,,30268.0,M36/3060-M1,,7.0,797.5576661458281,210.27626037597656,72.41562361905528,0.0,382.45954961072493,131.71266573127554
203,CRC191331,Issued - Active,2018-10-30,2033-09-30,Christchurch City Council,EC366614,CRC194217,CRC180837,Parent,CRC180837,Christchurch - West Melton,,4.0,2019-10-07,1.0,2019-07-15,153,6798.329999999996,M36/4073,Active,Yes,59.0,59.0,1,1,,1.0,,,,No,510045.0,2019-06-30,346.0,1.0,346.0,19.0,,take groundwater,73654978.0,6879.0,4160621.0,7.0,No,Poor Conditions,Complex,1,59.0,59.0,Jul,Jun,35683.0,7,1,73654978.0,25529,Too many meters in the consent.  The maximum is 100,,,,,,,,30271.0,M36/4073-M1,,0.0,16.14455992552969,70.44581943088107,63.8286619184297,0.0,119.3996939506459,108.18417274310119
204,CRC191331,Issued - Active,2018-10-30,2033-09-30,Christchurch City Council,EC366614,CRC194217,CRC180837,Parent,CRC180837,Christchurch - West Melton,,4.0,2019-10-07,1.0,2019-07-15,153,6798.329999999996,M36/4591,Active,Yes,58.61,58.61,1,1,,1.0,,,,No,141282.0,2019-06-30,352.0,1.0,352.0,13.0,,take groundwater,73654978.0,6879.0,4160621.0,7.0,No,Poor Conditions,Complex,1,58.61,58.61,Jul,Jun,35447.0,7,1,73654978.0,25529,Too many meters in the consent.  The maximum is 100,,,,,,,,30274.0,M36/4591-M1,,0.0,40.901017978058924,82.81437979804144,66.00862515586164,0.0,141.297355055522,112.62348601921452
205,CRC200028,Issued - Active,2019-06-28,2044-03-03,Rangitata South Irrigation Limited,EC106804,,CRC001229.1,Parent,CRC001229.1,Orari-Temuka-Opihi-Pareora,,,,,,1,20000.0,K37/3262,Active,No,30700.0,121400.0,4,1,1.0,1.0,2014-05-01,Yes,,No,,,,1.0,,365.0,,take surface water,0.0,20000.0,0.0,0.0,No,Multiple allocation blocks,Yes,1,392.0,,Jul,Jun,,,1,78000000.0,23383,,,,0.0,1840.9166666666667,,9.204583333333334,,26865.0,K37/3262-M1,,0.0,0.0,920.4583333333334,920.4583333333334,365.0,234.8107993197279,234.8107993197279
206,CRC200030,Issued - Active,2019-06-28,2044-03-03,Rangitata South Irrigation Limited,EC106804,,CRC042094.1,Parent,CRC042094.1,Orari-Temuka-Opihi-Pareora,,,,,,1,20000.0,K37/3262,Active,No,30700.0,121400.0,4,1,1.0,1.0,2014-05-01,Yes,,No,,,,1.0,,365.0,,take surface water,0.0,20000.0,0.0,0.0,No,Multiple allocation blocks,Yes,1,20000.0,,Jul,Jun,,,1,78000000.0,18835,,,,0.0,1840.9166666666667,,9.204583333333334,,19733.0,K37/3262-M1,,0.0,0.0,920.4583333333334,0.0,365.0,4.602291666666667,0.0
207,CRC200036,Issued - Active,2019-06-28,2044-03-03,Rangitata South Irrigation Limited,EC106804,,CRC070924.1,Parent,CRC070924.1,Orari-Temuka-Opihi-Pareora,,,,,,1,20000.0,K37/3262,Active,No,30700.0,121400.0,4,1,1.0,1.0,2014-05-01,Yes,,No,,,,1.0,,365.0,,take surface water,0.0,20000.0,0.0,0.0,NO,Multiple allocation blocks,Yes,1,392.0,,Jul,Jun,,,1,83096000.0,21799,,,,0.0,1840.9166666666667,,9.204583333333334,,24246.0,K37/3262-M1,,0.0,0.0,920.4583333333334,920.4583333333334,365.0,234.8107993197279,234.8107993197279
208,CRC200047,Issued - Active,2019-06-28,2042-01-31,Rangitata South Irrigation Limited,EC106804,,CRC134810,Parent,CRC134810,Orari-Temuka-Opihi-Pareora,,,,,,1,61400.0,K37/3262,Active,No,30700.0,121400.0,4,1,1.0,1.0,2014-05-01,Yes,,No,,,,1.0,,365.0,,take surface water,0.0,30700.0,0.0,0.0,No,Multiple allocation blocks,Yes,1,30700.0,,Jun,Aug,,,1,309553920.0,21798,,,,0.0,2761.375,,8.99470684039088,,24245.0,K37/3262-M1,,0.0,0.0,0.0,0.0,365.0,0.0,0.0
209,CRC200047,Issued - Active,2019-06-28,2042-01-31,Rangitata South Irrigation Limited,EC106804,,CRC134810,Parent,CRC134810,Orari-Temuka-Opihi-Pareora,,,,,,1,61400.0,K37/3262,Active,No,30700.0,121400.0,4,1,1.0,1.0,2014-05-01,Yes,,No,,,,1.0,,365.0,,take surface water,0.0,30700.0,0.0,0.0,No,Multiple allocation blocks,Yes,1,16900.0,,Sep,May,,,1,309553920.0,21798,,,,0.0,2761.375,,8.99470684039088,,24243.0,K37/3262-M1,,0.0,0.0,0.0,0.0,365.0,0.0,0.0
210,CRC905302.3,Issued - Active,2011-06-01,2025-04-30,"Genesis Energy Limited, Auckland",EC119969,,CRC905302.2,nan, ,Upper Waitaki,,6.0,2019-10-03,0.0,,1,130000.0,I37/0038,Active,No,130000.0,130000.0,1,1,1.0,1.0,,,,,2729510658.0,2019-06-30,365.0,1.0,365.0,0.0,,take surface water,0.0,130000.0,,,NO,No,Yes,1,130000.0,130000.0,Jul,Jun,11232000.0,1,1,0.0,19798,,,,0.0,127222.5,,97.86346153846154,,21305.0,I37/0038-M1,,0.0,0.0,0.0,0.0,0.0,0.0,0.0
211,CRC905308.2,Issued - Active,2011-06-01,2025-04-30,"Genesis Energy Limited, Auckland",EC119969,,CRC905308.1,nan, ,Upper Waitaki,,5.0,2019-10-04,0.0,,1,130000.0,I37/0040,Active,No,130000.0,130000.0,1,1,1.0,1.0,,,,,478462470.0,2019-06-29,364.0,1.0,364.0,1.0,,take surface water,0.0,130000.0,,,No,No,No,1,130000.0,130000.0,Jul,Jun,11232000.0,1,1,0.0,22307,,,,441.14084687723056,346823.6111111111,287761.272396379,266.7873931623932,221.3548249202915,25050.0,I37/0040-M1,,18.0,441.14084687723056,346823.6111111111,287761.272396379,0.0020833333333333333,266.7873931623932,221.3548249202915
212,CRC905324.1,Issued - Active,1999-08-05,2025-04-30,Meridian Energy Limited,EC111532,,CRC905324,nan, ,Upper Waitaki,,2.0,2017-05-18,0.0,,1,560000.0,H38/0189,Active,No,560000.0,560000.0,1,1,,,,,,No,,,,,,365.0,,take surface water,0.0,560000.0,0.0,0.0,No,No,No,1,560000.0,,Jul,Jun,,,1,0.0,18825,No data for H38/0189-M1,,,,,,,,19722.0,,No data for H38/0189.,,,,,,,
213,CRC905331.1,Issued - Active,1999-08-05,2025-04-30,Meridian Energy Limited,EC111532,,CRC905331,nan, ,Upper Waitaki,,2.0,2017-05-18,0.0,,1,200000.0,H38/0190,Active,No,200000.0,200000.0,1,1,,,,,,No,,,,,,365.0,,take surface water,0.0,200000.0,0.0,0.0,NO,No,No,1,200000.0,,Jul,Jun,,,1,6289920000.0,25499,No data for H38/0190-M1,,,,,,,,30073.0,,No data for H38/0190.,,,,,,,
214,CRC905338.1,Issued - Active,1999-08-05,2025-04-30,Meridian Energy Limited,EC111532,,CRC905338,nan, ,Upper Waitaki,,2.0,2017-05-18,0.0,,1,560000.0,H38/0191,Active,No,560000.0,560000.0,1,1,,,,,,No,,,,,,365.0,,take surface water,0.0,560000.0,0.0,0.0,No,No,No,1,560000.0,,Jul,Jun,,,1,0.0,20245,No data for H38/0191-M1,,,,,,,,21919.0,,No data for H38/0191.,,,,,,,
215,CRC951305,Issued - Active,1998-08-07,2033-03-25,Amuri Irrigation Company Limited,EC115655,,,nan, ,Hurunui - Waiau,,3.0,2018-10-09,1.0,2018-10-09,1,11000.0,N32/0344,Active,No,11000.0,11000.0,1,1,1.0,1.0,2016-05-24,No,,No,98400348.0,2019-06-29,364.0,1.0,364.0,1.0,,take surface water,0.0,11000.0,0.0,0.0,YES,No,Yes,1,11000.0,,Jul,Jun,,,1,79551935.0,22812,,,,740.7828280580044,12367.39583333335,11706.260502802026,112.43087121212136,106.42055002547298,26009.0,N32/0344-M1,,365.0,740.7828280580044,12367.39583333335,11706.260502802026,0.0,112.43087121212136,106.42055002547298
216,CRC990593,Issued - Active,1999-01-29,2034-01-27,The New Zealand King Salmon Co Limited,EC113243,,,nan, ,Selwyn - Waihora,,2.0,2019-09-25,1.0,2017-08-23,1,2250.0,M37/0484,Active,No,2250.0,2250.0,1,1,,,,,,,,,,,,365.0,,take surface water,0.0,2250.0,0.0,0.0,YES,No,No,1,2250.0,,Jul,Jun,,,1,70761600.0,20675,No data for M37/0484-M1,,,,,,,,22618.0,,No data for M37/0484.,,,,,,,
